,code,i94port_raw,i94port_state,i94port_bps,i94port_city,iso_region,ident,type,name,elevation_ft,continent,iso_country,municipality,gps_code,iata_code,local_code,upper_municipality,longitude,latitude,,
3,ANC,"ANCHORAGE, AK",AK,unknown,ANCHORAGE,US-AK,PANC,large_airport,Ted Stevens Anchorage International Airport,152.0,,US,Anchorage,PANC,ANC,ANC,ANCHORAGE,-149.99600219726600,61.174400329589800,,
8,EGL,"EAGLE, AK",AK,unknown,EAGLE,US-AK,PAEG,small_airport,Eagle Airport,908.0,,US,Eagle,PAEG,EAA,EAA,EAGLE,-141.151001,64.77639771,,
11,FRB,"FAIRBANKS, AK",AK,unknown,FAIRBANKS,US-AK,PAFA,large_airport,Fairbanks International Airport,439.0,,US,Fairbanks,PAFA,FAI,FAI,FAIRBANKS,-147.8560028,64.81510162,,
12,HOM,"HOMER, AK",AK,unknown,HOMER,US-AK,PAHO,medium_airport,Homer Airport,84.0,,US,Homer,PAHO,HOM,HOM,HOMER,-151.4770050048830,59.645599365234400,,
13,HYD,"HYDER, AK",AK,unknown,HYDER,US-AK,4Z7,seaplane_base,Hyder Seaplane Base,,,US,Hyder,,WHD,4Z7,HYDER,-130.009975,55.903324,,
14,JUN,"JUNEAU, AK",AK,unknown,JUNEAU,US-AK,PAJN,medium_airport,Juneau International Airport,21.0,,US,Juneau,PAJN,JNU,JNU,JUNEAU,-134.5760040283200,58.35499954223630,,
15,5KE,"KETCHIKAN, AK",AK,unknown,KETCHIKAN,US-AK,5KE,seaplane_base,Ketchikan Harbor Seaplane Base,,,US,Ketchikan,,WFB,5KE,KETCHIKAN,-131.677002,55.349899,,
18,KET,"KETCHIKAN, AK",AK,unknown,KETCHIKAN,US-AK,PAKT,medium_airport,Ketchikan International Airport,89.0,,US,Ketchikan,PAKT,KTN,KTN,KETCHIKAN,-131.7140045,55.35559845,,
24,SKA,"SKAGWAY, AK",AK,unknown,SKAGWAY,US-AK,PAGY,small_airport,Skagway Airport,44.0,,US,Skagway,PAGY,SGY,SGY,SKAGWAY,-135.3159942626950,59.46009826660160,,
26,TKI,"TOKEEN, AK",AK,unknown,TOKEEN,US-AK,57A,seaplane_base,Tokeen Seaplane Base,,,US,Tokeen,57A,TKI,57A,TOKEEN,-133.32699585,55.9370994568,,
27,WRA,"WRANGELL, AK",AK,unknown,WRANGELL,US-AK,PAWG,medium_airport,Wrangell Airport,49.0,,US,Wrangell,PAWG,WRG,WRG,WRANGELL,-132.3699951,56.48429871,,
0,ALC,"ALCAN, AK",AK,unknown,ALCAN,US-AK,,,,,,,,,,,,,,,
4,BAR,"BAKER AAF - BAKER ISLAND, AK",AK,unknown,BAKER AAF - BAKER ISLAND,US-AK,PBAR,closed,Baker AAF,,,US,Baker Island,,PBAR,,BAKER ISLAND,-133.579913,55.383876,,
5,DAC,"DALTONS CACHE, AK",AK,unknown,DALTONS CACHE,US-AK,,,,,,,,,,,,,,,
6,PIZ,"DEW STATION PT LAY DEW, AK",AK,unknown,DEW STATION PT LAY DEW,US-AK,PPIZ,medium_airport,Point Lay LRRS Airport,22.0,,US,Point Lay,PPIZ,PIZ,PIZ,POINT LAY,-163.0050049,69.73290253,,
7,DTH,"DUTCH HARBOR, AK",AK,unknown,DUTCH HARBOR,US-AK,,,,,,,,,,,,,,,
19,MOS,"MOSES POINT INTERMEDIATE, AK",AK,unknown,MOSES POINT INTERMEDIATE,US-AK,,,,,,,,,,,,,,,
20,NIK,"NIKISKI, AK",AK,unknown,NIKISKI,US-AK,,,,,,,,,,,,,,,
21,NOM,"NOME, AK",AK,unknown,NOME,US-AK,,,,,,,,,,,,,,,
22,PKC,"POKER CREEK, AK",AK,unknown,POKER CREEK,US-AK,,,,,,,,,,,,,,,
23,ORI,"PORT LIONS SPB, AK",AK,unknown,PORT LIONS SPB,US-AK,,,,,,,,,,,,,,,
25,SNP,"ST. PAUL ISLAND, AK",AK,unknown,ST. PAUL ISLAND,US-AK,PASN,medium_airport,St Paul Island Airport,63,NA,US,US-AK,St Paul Island,PASN,SNP,SNP,"-170.22000122070312, 57.167301177978516",,,
701,BHX,"BIRMINGHAM, AL",AL,unknown,BIRMINGHAM,US-AL,KBHM,large_airport,Birmingham-Shuttlesworth International Airport,650.0,,US,Birmingham,KBHM,BHM,BHM,BIRMINGHAM,-86.75350189,33.56290054,,
29,MOB,"MOBILE, AL",AL,unknown,MOBILE,US-AL,KBFM,medium_airport,Mobile Downtown Airport,26.0,,US,Mobile,KBFM,BFM,BFM,MOBILE,-88.06809997560000,30.626800537100000,,
30,MOB,"MOBILE, AL",AL,unknown,MOBILE,US-AL,KMOB,large_airport,Mobile Regional Airport,219.0,,US,Mobile,KMOB,MOB,MOB,MOBILE,-88.242797851562,30.691200256348,,
28,HSV,"MADISON COUNTY - HUNTSVILLE, AL",AL,unknown,MADISON COUNTY - HUNTSVILLE,US-AL,,,,,,,,,,,,,,,
31,LIA,"LITTLE ROCK, AR (BPS)",AR,(BPS),LITTLE ROCK,US-AR,KLIT,large_airport,Bill & Hillary Clinton National Airport/Adams Field,262.0,,US,Little Rock,KLIT,LIT,LIT,LITTLE ROCK,-92.2242965698,34.729400634800000,,
699,AG0,"MAGNOLIA, AR",AR,unknown,MAGNOLIA,US-AR,KAGO,small_airport,Ralph C Weiser Field,319.0,,US,Magnolia,KAGO,AGO,AGO,MAGNOLIA,-93.217002,33.228001,,
32,ROG,"ROGERS ARPT, AR",AR,unknown,ROGERS ARPT,US-AR,KROG,small_airport,Rogers Municipal Airport-Carter Field,1359,NA,US,US-AR,Rogers,KROG,ROG,ROG,-94.10690308,36.37229919,,
33,DOU,"DOUGLAS, AZ",AZ,unknown,DOUGLAS,US-AZ,KDGL,small_airport,Douglas Municipal Airport,4173.0,,US,Douglas,KDGL,DGL,DGL,DOUGLAS,-109.505996704,31.3425998688,,
37,NOG,"NOGALES, AZ",AZ,unknown,NOGALES,US-AZ,KOLS,medium_airport,Nogales International Airport,3955.0,,US,Nogales,KOLS,OLS,OLS,NOGALES,-110.848,31.4177,,
40,PHO,"PHOENIX, AZ",AZ,unknown,PHOENIX,US-AZ,KPHX,large_airport,Phoenix Sky Harbor International Airport,1135.0,,US,Phoenix,KPHX,PHX,PHX,PHOENIX,-112.01200103759800,33.43429946899410,,
46,TUC,"TUCSON, AZ",AZ,unknown,TUCSON,US-AZ,KTUS,large_airport,Tucson International Airport,2643.0,,US,Tucson,KTUS,TUS,TUS,TUCSON,-110.94100189209000,32.1161003112793,,
47,YUI,"YUMA, AZ",AZ,unknown,YUMA,US-AZ,KNYL,medium_airport,Yuma MCAS/Yuma International Airport,213.0,,US,Yuma,KNYL,YUM,NYL,YUMA,-114.6060028,32.65660095,,
712,YUM,"YUMA, AZ",AZ,unknown,YUMA,US-AZ,KNYL,medium_airport,Yuma MCAS/Yuma International Airport,213.0,,US,Yuma,KNYL,YUM,NYL,YUMA,-114.6060028,32.65660095,,
34,LUK,"LUKEVILLE, AZ",AZ,unknown,LUKEVILLE,US-AZ,,,,,,,,,,,,,,,
36,NAC,"NACO, AZ",AZ,unknown,NACO,US-AZ,,,,,,,,,,,,,,,
41,POR,"PORTAL, AZ",AZ,unknown,PORTAL,US-AZ,,,,,,,,,,,,,,,
42,SLU,"SAN LUIS, AZ",AZ,unknown,SAN LUIS,US-AZ,,,,,,,,,,,,,,,
43,SAS,"SASABE, AZ",AZ,unknown,SASABE,US-AZ,,,,,,,,,,,,,,,
49,BUR,"BURBANK, CA",CA,unknown,BURBANK,US-CA,KBUR,medium_airport,Bob Hope Airport,778.0,,US,Burbank,KBUR,BUR,BUR,BURBANK,-118.35900115966800,34.20069885253910,,
50,CAL,"CALEXICO, CA",CA,unknown,CALEXICO,US-CA,KCXL,small_airport,Calexico International Airport,4.0,,US,Calexico,KCXL,CXL,CXL,CALEXICO,-115.513000488,32.6694984436,,
52,FRE,"FRESNO, CA",CA,unknown,FRESNO,US-CA,KFAT,medium_airport,Fresno Yosemite International Airport,336.0,,US,Fresno,KFAT,FAT,FAT,FRESNO,-119.71800231933600,36.77619934082030,,
55,LNB,"LONG BEACH, CA",CA,unknown,LONG BEACH,US-CA,KLGB,medium_airport,Long Beach /Daugherty Field/ Airport,60.0,,US,Long Beach,KLGB,LGB,LGB,LONG BEACH,-118.1520004,33.81769943,,
57,LOS,"LOS ANGELES, CA",CA,unknown,LOS ANGELES,US-CA,KLAX,large_airport,Los Angeles International Airport,125.0,,US,Los Angeles,KLAX,LAX,LAX,LOS ANGELES,-118.4079971,33.94250107,,
61,OAK,"OAKLAND, CA",CA,unknown,OAKLAND,US-CA,KOAK,large_airport,Metropolitan Oakland International Airport,9.0,,US,Oakland,KOAK,OAK,OAK,OAKLAND,-122.221001,37.721298,,
63,ONT,"ONTARIO, CA",CA,unknown,ONTARIO,US-CA,KONT,large_airport,Ontario International Airport,944.0,,US,Ontario,KONT,ONT,ONT,ONTARIO,-117.60099792480500,34.055999755859400,,
66,PSP,"PALM SPRINGS, CA",CA,unknown,PALM SPRINGS,US-CA,KPSP,medium_airport,Palm Springs International Airport,477.0,,US,Palm Springs,KPSP,PSP,PSP,PALM SPRINGS,-116.50700378418000,33.8297004699707,,
709,RIV,"RIVERSIDE, CA",CA,unknown,RIVERSIDE,US-CA,KRIV,medium_airport,March ARB Airport,1536.0,,US,Riverside,KRIV,RIV,RIV,RIVERSIDE,-117.259003,33.880699,,
71,SAC,"SACRAMENTO, CA",CA,unknown,SACRAMENTO,US-CA,KSAC,medium_airport,Sacramento Executive Airport,24.0,,US,Sacramento,KSAC,SAC,SAC,SACRAMENTO,-121.492996216,38.5125007629,,
73,SLS,"SALINAS, CA (BPS)",CA,(BPS),SALINAS,US-CA,,,,,,,,,,,,,,,
77,SDP,"SAN DIEGO, CA",CA,unknown,SAN DIEGO,US-CA,KSAN,large_airport,San Diego International Airport,17.0,,US,San Diego,KSAN,SAN,SAN,SAN DIEGO,-117.190002441,32.7336006165,,
79,SFR,"SAN FRANCISCO, CA",CA,unknown,SAN FRANCISCO,US-CA,KSFO,large_airport,San Francisco International Airport,13.0,,US,San Francisco,KSFO,SFO,SFO,SAN FRANCISCO,-122.375,37.61899948120120,,
81,SNJ,"SAN JOSE, CA",CA,unknown,SAN JOSE,US-CA,KSJC,large_airport,Norman Y. Mineta San Jose International Airport,62.0,,US,San Jose,KSJC,SJC,SJC,SAN JOSE,-121.929001,37.362598,,
82,SLO,"SAN LUIS OBISPO, CA",CA,unknown,SAN LUIS OBISPO,US-CA,KSBP,medium_airport,San Luis County Regional Airport,212.0,,US,San Luis Obispo,KSBP,SBP,SBP,SAN LUIS OBISPO,-120.641998291,35.236801147500000,,
83,SLI,"SAN LUIS OBISPO, CA (BPS)",CA,(BPS),SAN LUIS OBISPO,US-CA,,,,,,,,,,,,,,,
84,SPC,"SAN PEDRO, CA",CA,unknown,SAN PEDRO,US-CA,6CA3,heliport,Catalina Air-Sea Terminal Heliport,5.0,,US,San Pedro,6CA3,SPQ,6CA3,SAN PEDRO,-118.275001526,33.7491989136,,
86,SAA,"SANTA ANA, CA",CA,unknown,SANTA ANA,US-CA,KSNA,large_airport,John Wayne Airport-Orange County Airport,56.0,,US,Santa Ana,KSNA,SNA,SNA,SANTA ANA,-117.8679962,33.67570114,,
87,STO,"STOCKTON, CA (BPS)",CA,(BPS),STOCKTON,US-CA,,,,,,,,,,,,,,,
711,VNY,"VAN NUYS, CA",CA,unknown,VAN NUYS,US-CA,KVNY,medium_airport,Van Nuys Airport,802.0,,US,Van Nuys,KVNY,VNY,VNY,VAN NUYS,-118.48999786377,34.209800720215,,
48,AND,"ANDRADE, CA",CA,unknown,ANDRADE,US-CA,landport,,,,,,,,,,,,,,
51,CAO,"CAMPO, CA",CA,unknown,CAMPO,US-CA,landport,,,,,,,,,,,,,,
54,ICP,"IMPERIAL COUNTY, CA",CA,unknown,IMPERIAL COUNTY,US-CA,landport,,,,,,,,,,,,,,
60,BFL,"MEADOWS FIELD - BAKERSFIELD, CA",CA,unknown,MEADOWS FIELD - BAKERSFIELD,US-CA,KBFL,medium_airport,Meadows Field,510,NA,US,Bakersfield,KBFL,BFL,BFL,BAKERSFIELD,-119.0569992,35.43360138,,
64,OTM,"OTAY MESA, CA",CA,unknown,OTAY MESA,US-CA,landport,,,,,,,,,,,,,,
65,BLT,"PACIFIC, HWY. STATION, CA",CA,unknown,"PACIFIC, HWY. STATION",US-CA,MMTJ,large_airport,General Abelardo L. RodrÃƒÂ­guez International Airport,489,NA,MX,Tijuana,MMTJ,TIJ,,TIJUANA,-116.970001220703,32.5410995483398,,
85,SYS,"SAN YSIDRO, CA",CA,unknown,SAN YSIDRO,US-CA,landport,,,,,,,,,,,,,,
88,TEC,"TECATE, CA",CA,unknown,TECATE,US-CA,landport,,,,,,,,,,,,,,
89,TRV,"TRAVIS-AFB, CA",CA,unknown,TRAVIS-AFB,US-CA,KSUU,large_airport,Travis Air Force Base,62,NA,US,Fairfield,KSUU,SUU,SUU,FAIRFIELD,-121.92700195312,38.262699127197,,
93,COS,"COLORADO SPRINGS, CO",CO,unknown,COLORADO SPRINGS,US-CO,KCOS,medium_airport,City of Colorado Springs Municipal Airport,6187.0,,US,Colorado Springs,KCOS,COS,COS,COLORADO SPRINGS,-104.700996,38.805801,,
96,DEN,"DENVER, CO",CO,unknown,DENVER,US-CO,KDEN,large_airport,Denver International Airport,5431.0,,US,Denver,KDEN,DEN,DEN,DENVER,-104.672996521,39.861698150635,,
90,APA,"ARAPAHOE COUNTY, CO",CO,unknown,ARAPAHOE COUNTY,US-CO,KAPA,medium_airport,Centennial Airport,5885,NA,US,Denver,KAPA,APA,APA,DENVER,-104.848999,39.57009888,,
97,DRO,"LA PLATA - DURANGO, CO",CO,unknown,LA PLATA - DURANGO,US-CO,KDRO,small_airport,Durango La Plata County Airport,6685.0,,US,Durango,KDRO,DRO,DRO,DURANGO,-107.753997803,37.1515007019,,
99,BGC,"BRIDGEPORT, CT",CT,unknown,BRIDGEPORT,US-CT,KBDR,medium_airport,Igor I Sikorsky Memorial Airport,9.0,,US,Bridgeport,KBDR,BDR,BDR,BRIDGEPORT,-73.1261978149414,41.16350173950200,,
101,HAR,"HARTFORD, CT",CT,unknown,HARTFORD,US-CT,KBDL,large_airport,Bradley International Airport,173.0,,US,Hartford,KBDL,BDL,BDL,HARTFORD,-72.68319702150000,41.9388999939,,
103,NWH,"NEW HAVEN, CT",CT,unknown,NEW HAVEN,US-CT,KHVN,medium_airport,Tweed New Haven Airport,12.0,,US,New Haven,KHVN,HVN,HVN,NEW HAVEN,-72.88680267,41.26369858,,
98,BDL,"BRADLEY INTERNATIONAL, CT",CT,unknown,BRADLEY INTERNATIONAL,US-CT,KBDL,large_airport,Bradley International Airport,173.0,,US,Hartford,KBDL,BDL,BDL,HARTFORD,-72.68319702150000,41.9388999939,,41.9388999939
100,GRT,"GROTON, CT",CT,unknown,GROTON,US-CT,,,,,,,,,,,,,,,
104,NWL,"NEW LONDON, CT",CT,unknown,NEW LONDON,US-CT,,,,,,,,,,,,,,,
105,TST,"NEWINGTON DATA CENTER TEST, CT",CT,unknown,NEWINGTON DATA CENTER TEST,US-CT,,,,,,,,,,,,,,,
109,WLL,"WILMINGTON, DE",DE,unknown,WILMINGTON,US-DE,KILG,medium_airport,New Castle Airport,80.0,,US,Wilmington,KILG,ILG,ILG,WILMINGTON,-75.60649872,39.67869949,,
107,DOV,"DOVER AFB, DE",DE,unknown,DOVER AFB,US-DE,KDOV,large_airport,Dover Air Force Base,24.0,,US,Dover,KDOV,DOV,DOV,DOVER,-75.46600342,39.12950134,,
108,DVD,"DOVER-AFB, DE",DE,unknown,DOVER-AFB,US-DE,KDOV,large_airport,Dover Air Force Base,24.0,,US,Dover,KDOV,DOV,DOV,DOVER,-75.46600342,39.12950134,,
115,FTL,"FORT LAUDERDALE, FL",FL,unknown,FORT LAUDERDALE,US-FL,KFLL,large_airport,Fort Lauderdale Hollywood International Airport,9.0,,US,Fort Lauderdale,KFLL,FLL,FLL,FORT LAUDERDALE,-80.152702,26.072599,,
118,FMY,"FORT MYERS, FL",FL,unknown,FORT MYERS,US-FL,KRSW,large_airport,Southwest Florida International Airport,30.0,,US,Fort Myers,KRSW,RSW,RSW,FORT MYERS,-81.75520324707030,26.53619956970220,,
119,FPF,"FORT PIERCE, FL",FL,unknown,FORT PIERCE,US-FL,KFPR,medium_airport,St Lucie County International Airport,24.0,,US,Fort Pierce,KFPR,FPR,FPR,FORT PIERCE,-80.36830139,27.49510002,,
123,JAC,"JACKSONVILLE, FL",FL,unknown,JACKSONVILLE,US-FL,KJAX,large_airport,Jacksonville International Airport,30.0,,US,Jacksonville,KJAX,JAX,JAX,JACKSONVILLE,-81.68789672851560,30.49410057067870,,
127,KEY,"KEY WEST, FL",FL,unknown,KEY WEST,US-FL,KEYW,medium_airport,Key West International Airport,3.0,,US,Key West,KEYW,EYW,EYW,KEY WEST,-81.75959777832030,24.556100845336900,,
130,MLB,"MELBOURNE, FL",FL,unknown,MELBOURNE,US-FL,KMLB,medium_airport,Melbourne International Airport,33.0,,US,Melbourne,KMLB,MLB,MLB,MELBOURNE,-80.64530181884770,28.102800369262700,,
131,MIA,"MIAMI, FL",FL,unknown,MIAMI,US-FL,KMIA,large_airport,Miami International Airport,8.0,,US,Miami,KMIA,MIA,MIA,MIAMI,-80.29060363769530,25.79319953918460,,
139,ORL,"ORLANDO, FL",FL,unknown,ORLANDO,US-FL,KMCO,large_airport,Orlando International Airport,96.0,,US,Orlando,KMCO,MCO,MCO,ORLANDO,-81.30899810791020,28.429399490356400,,
142,PAN,"PANAMA CITY, FL",FL,unknown,PANAMA CITY,US-FL,KPAM,large_airport,Tyndall Air Force Base,17.0,,US,Panama City,KPAM,PAM,PAM,PANAMA CITY,-85.57540130620000,30.0695991516,,
144,PEN,"PENSACOLA, FL",FL,unknown,PENSACOLA,US-FL,KPNS,medium_airport,Pensacola Regional Airport,121.0,,US,Pensacola,KPNS,PNS,PNS,PENSACOLA,-87.186599731445,30.473400115967,,
150,SAU,"ST AUGUSTINE, FL",FL,unknown,ST AUGUSTINE,US-FL,KSGJ,medium_airport,Northeast Florida Regional Airport,10.0,,US,St Augustine,KSGJ,UST,SGJ,ST AUGUSTINE,-81.339798,29.9592,,
152,SPE,"ST PETERSBURG, FL",FL,unknown,ST PETERSBURG,US-FL,,,,,,,,,,,,,,,
154,TAM,"TAMPA, FL",FL,unknown,TAMPA,US-FL,KTPA,large_airport,Tampa International Airport,26.0,,US,Tampa,KTPA,TPA,TPA,TAMPA,-82.533203125,27.975500106811500,,
158,WPB,"WEST PALM BEACH, FL",FL,unknown,WEST PALM BEACH,US-FL,KPBI,large_airport,Palm Beach International Airport,19.0,,US,West Palm Beach,KPBI,PBI,PBI,WEST PALM BEACH,-80.09559631347660,26.68320083618160,,
110,BOC,"BOCAGRANDE, FL",FL,unknown,BOCAGRANDE,US-FL,,,,,,,,,,,,,,,
111,SRQ,"BRADENTON - SARASOTA, FL",FL,unknown,BRADENTON - SARASOTA,US-FL,KSRQ,large_airport,Sarasota Bradenton International Airport,30.0,,US,Sarasota/Bradenton,KSRQ,SRQ,SRQ,SARASOTA/BRADENTON,-82.55439758300780,27.39539909362790,,
112,CAN,"CAPE CANAVERAL, FL",FL,unknown,CAPE CANAVERAL,US-FL,,,,,,,,,,,,,,,
113,DAB,"DAYTONA BEACH INTERNATIONAL, FL",FL,unknown,DAYTONA BEACH INTERNATIONAL,US-FL,KDAB,large_airport,Daytona Beach International Airport,34.0,,US,Daytona Beach,KDAB,DAB,DAB,DAYTONA BEACH,-81.058098,29.179899,,
114,FRN,"FERNANDINA, FL",FL,unknown,FERNANDINA,US-FL,,,,,,,,,,,,,,,
120,HUR,"HURLBURT FIELD, FL",FL,unknown,HURLBURT FIELD,US-FL,KHRT,,Hurlburt Field,38,,US,Mary Esther,KHRT,HRT,HRT,MARY ESTHER,-86.689444,30.427778,,
121,GNV,"J R ADDISON MUNI - GAINESVILLE, FL",FL,unknown,J R ADDISON MUNI - GAINESVILLE,US-FL,,,,,,,,,,,,,,,
129,LEE,"LEESBURG MUNICIPAL AIRPORT, FL",FL,unknown,LEESBURG MUNICIPAL AIRPORT,US-FL,KLEE,medium_airport,Leesburg International Airport,76.0,,US,Leesburg,KLEE,LEE,LEE,LEESBURG,-81.80870056,28.82309914,,
137,OPF,"OPA LOCKA, FL",FL,unknown,OPA LOCKA,US-FL,KOPF,medium_airport,Opa-locka Executive Airport,8.0,,US,Miami,KOPF,OPF,OPF,MIAMI,-80.278397,25.907,,
145,PCF,"PORT CANAVERAL, FL",FL,unknown,PORT CANAVERAL,US-FL,,,,,,,,,,,,,,,
146,PEV,"PORT EVERGLADES, FL",FL,unknown,PORT EVERGLADES,US-FL,,,,,,,,,,,,,,,
147,PSJ,"PORT ST JOE, FL",FL,unknown,PORT ST JOE,US-FL,,,,,,,,,,,,,,,
148,SFB,"SANFORD, FL",FL,unknown,SANFORD,US-FL,,,,,,,,,,,,,,,
149,SGJ,"ST AUGUSTINE ARPT, FL",FL,unknown,ST AUGUSTINE ARPT,US-FL,KSGJ,medium_airport,Northeast Florida Regional Airport,10.0,,US,St Augustine,KSGJ,UST,SGJ,ST AUGUSTINE,-81.339798,29.9592,,
151,FPR,"ST LUCIE COUNTY, FL",FL,unknown,ST LUCIE COUNTY,US-FL,KFPR,medium_airport,St Lucie County International Airport,24.0,,US,Fort Pierce,KFPR,FPR,FPR,FORT PIERCE,-80.36830139,27.49510002,,
159,ATL,"ATLANTA, GA",GA,unknown,ATLANTA,US-GA,KATL,large_airport,Hartsfield Jackson Atlanta International Airport,1026.0,,US,Atlanta,KATL,ATL,ATL,ATLANTA,-84.428101,33.6367,,
162,BRU,"BRUNSWICK, GA",GA,unknown,BRUNSWICK,US-GA,KBQK,medium_airport,Brunswick Golden Isles Airport,26.0,,US,Brunswick,KBQK,BQK,BQK,BRUNSWICK,-81.46649932861330,31.258800506591800,,
165,SAV,"SAVANNAH, GA",GA,unknown,SAVANNAH,US-GA,KSAV,large_airport,Savannah Hilton Head International Airport,50.0,,US,Savannah,KSAV,SAV,SAV,SAVANNAH,-81.20210266,32.12760162,,
164,AGS,"BUSH FIELD - AUGUSTA, GA",GA,unknown,BUSH FIELD - AUGUSTA,US-GA,KAGS,large_airport,Augusta Regional At Bush Field,144.0,,US,Augusta,KAGS,AGS,AGS,AUGUSTA,-81.9645004272461,33.36989974975590,,
167,AGA,"AGANA, GU",GU,unknown,AGANA,US-GU,PGUM,large_airport,Antonio B. Won Pat International Airport,298,,,Agana,PGUM,GUM,GUM,AGANA,144.796005249,13.4834003448,,
168,HHW,"HONOLULU, HI",HI,unknown,HONOLULU,US-HI,PHNL,large_airport,Daniel K Inouye International Airport,13.0,,US,Honolulu,PHNL,HNL,HNL,HONOLULU,-157.924228,21.32062,,
171,LIH,"LIHUE, HI",HI,unknown,LIHUE,US-HI,PHLI,medium_airport,Lihue Airport,153.0,,US,Lihue,PHLI,LIH,LIH,LIHUE,-159.33900451660200,21.97599983215330,,
169,OGG,"KAHULUI - MAUI, HI",HI,unknown,KAHULUI - MAUI,US-HI,,,,,,,,,,,,,,,
170,KOA,"KEAHOLE-KONA, HI",HI,unknown,KEAHOLE-KONA,US-HI,PHKO,medium_airport,Ellison Onizuka Kona International At Keahole Airport,47.0,,US,Kailua/Kona,PHKO,KOA,KOA,KAILUA/KONA,-156.045603,19.738783,,
173,DSM,"DES MOINES, IA",IA,unknown,DES MOINES,US-IA,KDSM,large_airport,Des Moines International Airport,958.0,,US,Des Moines,KDSM,DSM,DSM,DES MOINES,-93.66310119628910,41.534000396728500,,
172,CID,"CEDAR RAPIDS/IOWA CITY, IA",IA,unknown,CEDAR RAPIDS/IOWA CITY,US-IA,,,,,,,,,,,,,,,
174,BOI,"AIR TERM. (GOWEN FLD) BOISE, ID",ID,unknown,AIR TERM. (GOWEN FLD) BOISE,US-ID,KBOI,large_airport,Boise Air Terminal/Gowen Field,2871.0,,US,Boise,KBOI,BOI,BOI,BOISE,-116.223,43.5644,,
175,EPI,"EASTPORT, ID",ID,unknown,EASTPORT,US-ID,,,,,,,,,,,,,,,
176,IDA,"FANNING FIELD - IDAHO FALLS, ID",ID,unknown,FANNING FIELD - IDAHO FALLS,US-ID,KIDA,medium_airport,Idaho Falls Regional Airport,4744.0,,US,Idaho Falls,KIDA,IDA,IDA,IDAHO FALLS,-112.070999,43.514599,,
177,PTL,"PORTHILL, ID",ID,unknown,PORTHILL,US-ID,,,,,,,,,,,,,,,
181,CHI,"CHICAGO, IL",IL,unknown,CHICAGO,US-IL,KORD,large_airport,Chicago O'Hare International Airport,672.0,,US,Chicago,KORD,ORD,ORD,CHICAGO,-87.9048,41.9786,,
707,MLI,"MOLINE, IL",IL,unknown,MOLINE,US-IL,KMLI,large_airport,Quad City International Airport,590.0,,US,Moline,KMLI,MLI,MLI,MOLINE,-90.50749969482420,41.44850158691410,,
178,SPI,"CAPITAL - SPRINGFIELD, IL",IL,unknown,CAPITAL - SPRINGFIELD,US-IL,KSPI,large_airport,Abraham Lincoln Capital Airport,598.0,,US,Springfield,KSPI,SPI,SPI,SPRINGFIELD,-89.67790222,39.84410095,,
182,DPA,"DUPAGE COUNTY, IL",IL,unknown,DUPAGE COUNTY,US-IL,KDPA,medium_airport,Dupage Airport,759.0,,US,Chicago/West Chicago,KDPA,DPA,DPA,CHICAGO/WEST CHICAGO,-88.24859619,41.90779877,,
183,PIA,"GREATER PEORIA, IL",IL,unknown,GREATER PEORIA,US-IL,KPIA,large_airport,General Wayne A. Downing Peoria International Airport,660.0,,US,Peoria,KPIA,PIA,PIA,PEORIA,-89.6932983398,40.664199829100000,,
184,RFD,"GREATER ROCKFORD, IL",IL,unknown,GREATER ROCKFORD,US-IL,KRFD,large_airport,Chicago Rockford International Airport,742.0,,US,Chicago/Rockford,KRFD,RFD,RFD,CHICAGO/ROCKFORD,-89.09719848632810,42.19540023803710,,
185,UGN,"MEMORIAL - WAUKEGAN, IL",IL,unknown,MEMORIAL - WAUKEGAN,US-IL,KUGN,small_airport,Waukegan National Airport,727.0,,US,Chicago/Waukegan,KUGN,UGN,UGN,CHICAGO/WAUKEGAN,-87.867897033691,42.422199249268,,
186,GAR,"GARY, IN",IN,unknown,GARY,US-IN,KGYY,medium_airport,Gary Chicago International Airport,591.0,,US,Gary,KGYY,GYY,GYY,GARY,-87.41280364990230,41.61629867553710,,
188,INP,"INDIANAPOLIS, IN",IN,unknown,INDIANAPOLIS,US-IN,KIND,large_airport,Indianapolis International Airport,797.0,,US,Indianapolis,KIND,IND,IND,INDIANAPOLIS,-86.294403,39.7173,,
190,SBN,"SOUTH BEND, IN",IN,unknown,SOUTH BEND,US-IN,KSBN,large_airport,South Bend Regional Airport,799.0,,US,South Bend,KSBN,SBN,SBN,SOUTH BEND,-86.31729888916020,41.70869827270510,,
187,HMM,"HAMMOND, IN",IN,unknown,HAMMOND,US-IN,,,,,,,,,,,,,,,
189,MRL,"MERRILLVILLE, IN",IN,unknown,MERRILLVILLE,US-IN,,,,,,,,,,,,,,,
191,ICT,"MID-CONTINENT - WICHITA, KS",KS,unknown,MID-CONTINENT - WICHITA,US-KS,KICT,large_airport,Wichita Eisenhower National Airport,1333.0,,US,Wichita,KICT,ICT,ICT,WICHITA,-97.433098,37.649899,,
193,LOU,"LOUISVILLE, KY",KY,unknown,LOUISVILLE,US-KY,KLOU,medium_airport,Bowman Field,546.0,,US,Louisville,KLOU,LOU,LOU,LOUISVILLE,-85.6636962891,38.2280006409,,
194,LOU,"LOUISVILLE, KY",KY,unknown,LOUISVILLE,US-KY,KSDF,large_airport,Louisville International Standiford Field,501.0,,US,Louisville,KSDF,SDF,SDF,LOUISVILLE,-85.736,38.1744,,
192,LEX,"BLUE GRASS - LEXINGTON, KY",KY,unknown,BLUE GRASS - LEXINGTON,US-KY,KLEX,large_airport,Blue Grass Airport,979.0,,US,Lexington,KLEX,LEX,LEX,LEXINGTON,-84.60590362548830,38.0364990234375,,
195,BTN,"BATON ROUGE, LA",LA,unknown,BATON ROUGE,US-LA,KBTR,medium_airport,Baton Rouge Metropolitan Airport,70.0,,US,Baton Rouge,KBTR,BTR,BTR,BATON ROUGE,-91.149597,30.533199,,
197,LKC,"LAKE CHARLES, LA",LA,unknown,LAKE CHARLES,US-LA,KLCH,medium_airport,Lake Charles Regional Airport,15.0,,US,Lake Charles,KLCH,LCH,LCH,LAKE CHARLES,-93.22329711914060,30.126100540161100,,
198,LAK,"LAKE CHARLES, LA (BPS)",LA,(BPS),LAKE CHARLES,US-LA,,,,,,,,,,,,,,,
200,MLU,"MONROE, LA",LA,unknown,MONROE,US-LA,KMLU,large_airport,Monroe Regional Airport,79.0,,US,Monroe,KMLU,MLU,MLU,MONROE,-92.0376968383789,32.51089859008790,,
202,NOL,"NEW ORLEANS, LA",LA,unknown,NEW ORLEANS,US-LA,KMSY,large_airport,Louis Armstrong New Orleans International Airport,4.0,,US,New Orleans,KMSY,MSY,MSY,NEW ORLEANS,-90.25800323486330,29.99340057373050,,
201,MGC,"MORGAN CITY, LA",LA,unknown,MORGAN CITY,US-LA,,,,,,,,,,,,,,,
205,BOS,"BOSTON, MA",MA,unknown,BOSTON,US-MA,KBOS,large_airport,General Edward Lawrence Logan International Airport,20.0,,US,Boston,KBOS,BOS,BOS,BOSTON,-71.00520325,42.36429977,,
207,GLO,"GLOUCESTER, MA",MA,unknown,GLOUCESTER,US-MA,,,,,,,,,,,,,,,
208,BED,"HANSCOM FIELD - BEDFORD, MA",MA,unknown,HANSCOM FIELD - BEDFORD,US-MA,KBED,medium_airport,Laurence G Hanscom Field,133.0,,US,Bedford,KBED,BED,BED,BEDFORD,-71.28900146,42.47000122,,
211,BAL,"BALTIMORE, MD",MD,unknown,BALTIMORE,US-MD,KBWI,large_airport,Baltimore/Washington International Thurgood Marshall Airport,146.0,,US,Baltimore,KBWI,BWI,BWI,BALTIMORE,-76.668297,39.1754,,
214,PAX,"PATUXENT RIVER, MD",MD,unknown,PATUXENT RIVER,US-MD,KNHK,medium_airport,Patuxent River Naval Air Station (Trapnell Field),39.0,,US,Patuxent River,KNHK,NHK,NHK,PATUXENT RIVER,-76.411797,38.285999,,
210,ADW,"ANDREWS AFB, MD",MD,unknown,ANDREWS AFB,US-MD,KADW,large_airport,Joint Base Andrews,280.0,,US,Camp Springs,KADW,ADW,ADW,CAMP SPRINGS,-76.866997,38.810799,,
213,MKG,"MUSKEGON, MD",MD,unknown,MUSKEGON,US-MD,,,,,,,,,,,,,,,
215,BGM,"BANGOR, ME",ME,unknown,BANGOR,US-ME,KBGR,large_airport,Bangor International Airport,192.0,,US,Bangor,KBGR,BGR,BGR,BANGOR,-68.8281021118164,44.80739974975590,,
700,BHM,"BAR HARBOR, ME",ME,unknown,BAR HARBOR,US-ME,KBHB,medium_airport,Hancock County-Bar Harbor Airport,83.0,,US,Bar Harbor,KBHB,BHB,BHB,BAR HARBOR,-68.3615036,44.45000076,,
220,CRB,"CARIBOU, ME",ME,unknown,CARIBOU,US-ME,KCAR,medium_airport,Caribou Municipal Airport,626.0,,US,Caribou,KCAR,CAR,CAR,CARIBOU,-68.0178985596,46.871498107900000,,
229,HTM,"HOULTON, ME",ME,unknown,HOULTON,US-ME,KHUL,medium_airport,Houlton International Airport,489.0,,US,Houlton,KHUL,HUL,HUL,HOULTON,-67.792098999,46.1231002808,,
232,LIM,"LIMESTONE, ME",ME,unknown,LIMESTONE,US-ME,ME16,small_airport,Loring International Airport,746.0,,US,Limestone,ME16,LIZ,ME16,LIMESTONE,-67.885902,46.950401,,
235,POM,"PORTLAND, ME",ME,unknown,PORTLAND,US-ME,KPWM,large_airport,Portland International Jetport Airport,76.0,,US,Portland,KPWM,PWM,PWM,PORTLAND,-70.30930328,43.64619827,,
216,BOO,"BOOTHBAY HARBOR, ME",ME,unknown,BOOTHBAY HARBOR,US-ME,,,,,,,,,,,,,,,
217,BWM,"BRIDGEWATER, ME",ME,unknown,BRIDGEWATER,US-ME,,,,,,,,,,,,,,,
218,BCK,"BUCKPORT, ME",ME,unknown,BUCKPORT,US-ME,,,,,,,,,,,,,,,
219,CLS,"CALAIS, ME",ME,unknown,CALAIS,US-ME,,,,,,,,,,,,,,,
221,COB,"COBURN GORE, ME",ME,unknown,COBURN GORE,US-ME,,,,,,,,,,,,,,,
222,EST,"EASTCOURT, ME",ME,unknown,EASTCOURT,US-ME,,,,,,,,,,,,,,,
224,EPM,"EASTPORT, ME",ME,unknown,EASTPORT,US-ME,,,,,,,,,,,,,,,
223,EPT,"EASTPORT MUNICIPAL, ME",ME,unknown,EASTPORT MUNICIPAL,US-ME,,,,,,,,,,,,,,,
225,FOR,"FOREST CITY, ME",ME,unknown,FOREST CITY,US-ME,,,,,,,,,,,,,,,
226,FTF,"FORT FAIRFIELD, ME",ME,unknown,FORT FAIRFIELD,US-ME,,,,,,,,,,,,,,,
227,FTK,"FORT KENT, ME",ME,unknown,FORT KENT,US-ME,,,,,,,,,,,,,,,
228,HML,"HAMIIN, ME",ME,unknown,HAMIIN,US-ME,,,,,,,,,,,,,,,
230,JKM,"JACKMAN, ME",ME,unknown,JACKMAN,US-ME,,,,,,,,,,,,,,,
233,LUB,"LUBEC, ME",ME,unknown,LUBEC,US-ME,,,,,,,,,,,,,,,
234,MAD,"MADAWASKA, ME",ME,unknown,MADAWASKA,US-ME,,,,,,,,,,,,,,,
236,RGM,"RANGELEY, ME (BPS)",ME,(BPS),RANGELEY,US-ME,,,,,,,,,,,,,,,
237,SBR,"SOUTH BREWER, ME",ME,unknown,SOUTH BREWER,US-ME,,,,,,,,,,,,,,,
238,SRL,"ST AURELIE, ME",ME,unknown,ST AURELIE,US-ME,,,,,,,,,,,,,,,
239,SPA,"ST PAMPILE, ME",ME,unknown,ST PAMPILE,US-ME,,,,,,,,,,,,,,,
240,VNB,"VAN BUREN, ME",ME,unknown,VAN BUREN,US-ME,,,,,,,,,,,,,,,
241,VCB,"VANCEBORO, ME",ME,unknown,VANCEBORO,US-ME,,,,,,,,,,,,,,,
243,ALP,"ALPENA, MI",MI,unknown,ALPENA,US-MI,KAPN,medium_airport,Alpena County Regional Airport,690.0,,US,Alpena,KAPN,APN,APN,ALPENA,-83.56030273,45.0780983,,
246,DET,"DETROIT, MI",MI,unknown,DETROIT,US-MI,KDTW,large_airport,Detroit Metropolitan Wayne County Airport,645.0,,US,Detroit,KDTW,DTW,DTW,DETROIT,-83.35340118408200,42.212398529052700,,
248,GRP,"GRAND RAPIDS, MI",MI,unknown,GRAND RAPIDS,US-MI,KGRR,medium_airport,Gerald R. Ford International Airport,794.0,,US,Grand Rapids,KGRR,GRR,GRR,GRAND RAPIDS,-85.52279663,42.88079834,,
254,PHU,"PORT HURON, MI",MI,unknown,PORT HURON,US-MI,KPHN,small_airport,St Clair County International Airport,650.0,,US,Port Huron,KPHN,PHN,PHN,PORT HURON,-82.52890015,42.9109993,,
256,SAG,"SAGINAW, MI",MI,unknown,SAGINAW,US-MI,KMBS,large_airport,MBS International Airport,668.0,,US,Saginaw,KMBS,MBS,MBS,SAGINAW,-84.07959747314450,43.532901763916000,,
242,AGN,"ALGONAC, MI",MI,unknown,ALGONAC,US-MI,,,,,,,,,,,,,,,
244,BCY,"BAY CITY, MI",MI,unknown,BAY CITY,US-MI,,,,,,,,,,,,,,,
249,GRO,"GROSSE ISLE, MI",MI,unknown,GROSSE ISLE,US-MI,,,,,,,,,,,,,,,
250,ISL,"ISLE ROYALE, MI",MI,unknown,ISLE ROYALE,US-MI,,,,,,,,,,,,,,,
251,MRC,"MARINE CITY, MI",MI,unknown,MARINE CITY,US-MI,,,,,,,,,,,,,,,
252,MRY,"MARYSVILLE, MI",MI,unknown,MARYSVILLE,US-MI,,,,,,,,,,,,,,,
253,PTK,"OAKLAND COUNTY - PONTIAC, MI",MI,unknown,OAKLAND COUNTY - PONTIAC,US-MI,KPTK,medium_airport,Oakland County International Airport,980.0,,US,Pontiac,KPTK,PTK,PTK,PONTIAC,-83.420097351074,42.665500640869,,
255,RBT,"ROBERTS LANDING, MI",MI,unknown,ROBERTS LANDING,US-MI,,,,,,,,,,,,,,,
257,SSM,"SAULT STE. MARIE, MI",MI,unknown,SAULT STE. MARIE,US-MI,,,,,,,,,,,,,,,
258,SCL,"ST CLAIR, MI",MI,unknown,ST CLAIR,US-MI,,,,,,,,,,,,,,,
259,YIP,"WILLOW RUN - YPSILANTI, MI",MI,unknown,WILLOW RUN - YPSILANTI,US-MI,,,,,,,,,,,,,,,
260,BAU,"BAUDETTE, MN",MN,unknown,BAUDETTE,US-MN,KBDE,medium_airport,Baudette International Airport,1086.0,,US,Baudette,KBDE,BDE,BDE,BAUDETTE,-94.612197876,48.7284011841,,
266,DUL,"DULUTH, MN",MN,unknown,DULUTH,US-MN,KDLH,large_airport,Duluth International Airport,1428.0,,US,Duluth,KDLH,DLH,DLH,DULUTH,-92.19360351560000,46.8420982361,,
267,ELY,"ELY, MN",MN,unknown,ELY,US-MN,KELO,medium_airport,Ely Municipal Airport,1456.0,,US,Ely,KELO,LYU,ELO,ELY,-91.83070374,47.82450104,,
278,RST,"ROCHESTER, MN",MN,unknown,ROCHESTER,US-MN,KRST,large_airport,Rochester International Airport,1317.0,,US,Rochester,KRST,RST,RST,ROCHESTER,-92.5,43.90829849243160,,
279,ROS,"ROSEAU, MN",MN,unknown,ROSEAU,US-MN,KROX,small_airport,Roseau Municipal Rudy Billberg Field,1060.0,,US,Roseau,KROX,ROX,ROX,ROSEAU,-95.6969986,48.85599899,,
280,SPM,"ST PAUL, MN",MN,unknown,ST PAUL,US-MN,KSTP,medium_airport,St Paul Downtown Holman Field,705.0,,US,St Paul,KSTP,STP,STP,ST PAUL,-93.05999755859380,44.93450164794920,,
282,WAR,"WARROAD, MN",MN,unknown,WARROAD,US-MN,KRRT,small_airport,Warroad International Memorial Airport,1076.0,,US,Warroad,KRRT,RRT,RRT,WARROAD,-95.3483963,48.94139862,,
261,CAR,"CARIBOU MUNICIPAL AIRPORT, MN",MN,unknown,CARIBOU MUNICIPAL AIRPORT,US-ME,KCAR,medium_airport,Caribou Municipal Airport,626.0,,US,Caribou,KCAR,CAR,CAR,CARIBOU,-68.0178985596,46.871498107900000,,
264,CRA,"CRANE LAKE, MN",MN,unknown,CRANE LAKE,US-MN,,,,,,,,,,,,,,,
265,MIC,"CRYSTAL AIRPORT, MN",MN,unknown,CRYSTAL AIRPORT,US-MN,KMIC,,Crystal Airport,869,,US,Minneapolis,KMIC,MIC,MIC,MINNEAPOLIS,-93.353889,45.061944,,
262,GTF,"Collapsed into INT, MN",MN,unknown,Collapsed into INT,US-MN,,,,,,,,,,,,,,,
263,INL,"Collapsed into INT, MN",MN,unknown,Collapsed into INT,US-MN,,,,,,,,,,,,,,,
268,GPM,"GRAND PORTAGE, MN",MN,unknown,GRAND PORTAGE,US-MN,,,,,,,,,,,,,,,
269,SVC,"GRANT COUNTY - SILVER CITY, MN",MN,unknown,GRANT COUNTY - SILVER CITY,US-MN,KSVC,small_airport,Grant County Airport,5446.0,,US,Silver City,KSVC,SVC,SVC,SILVER CITY,-108.15599822998000,32.63650131225590,,
270,INT,"INT''L FALLS, MN",MN,unknown,INT''L FALLS,US-MN,,,,,,,,,,,,,,,
271,LAN,"LANCASTER, MN",MN,unknown,LANCASTER,US-MN,,,,,,,,,,,,,,,
272,MSP,"MINN./ST PAUL, MN",MN,unknown,MINN./ST PAUL,US-MN,KMSP,large_airport,Minneapolis-St Paul International/Wold-Chamberlain Airport,841.0,,US,Minneapolis,KMSP,MSP,MSP,MINNEAPOLIS,-93.221802,44.882,,
273,LIN,"NORTHERN SVC CENTER, MN",MN,unknown,NORTHERN SVC CENTER,US-MN,,,,,,,,,,,,,,,
274,NOY,"NOYES, MN",MN,unknown,NOYES,US-MN,,,,,,,,,,,,,,,
275,PIN,"PINE CREEK, MN",MN,unknown,PINE CREEK,US-MN,,,,,,,,,,,,,,,
276,48Y,"PINECREEK BORDER ARPT, MN",MN,unknown,PINECREEK BORDER ARPT,US-MN,,small_airport,Piney Pinecreek Border Airport,1082,,US,Pinecreek,,,48Y,PINECREEK,48.998889,-95.982222,,
277,RAN,"RAINER, MN",MN,unknown,RAINER,US-MN,,,,,,,,,,,,,,,
281,WSB,"WARROAD INTL, SPB, MN",MN,unknown,"WARROAD INTL, SPB",US-MN,KRRT,small_airport,Warroad International Memorial Airport,1076.0,,US,Warroad,KRRT,RRT,RRT,WARROAD,-95.3483963,48.94139862,,
283,KAN,"KANSAS CITY, MO",MO,unknown,KANSAS CITY,US-MO,KMCI,large_airport,Kansas City International Airport,1026.0,,US,Kansas City,KMCI,MCI,MCI,KANSAS CITY,-94.713898,39.2976,,
286,STL,"ST LOUIS, MO",MO,unknown,ST LOUIS,US-MO,KSTL,large_airport,St Louis Lambert International Airport,618.0,,US,St Louis,KSTL,STL,STL,ST LOUIS,-90.370003,38.748697,,
285,SGF,"SPRINGFIELD-BRANSON, MO",MO,unknown,SPRINGFIELD-BRANSON,US-MO,KSGF,large_airport,Springfield Branson National Airport,1268.0,,US,Springfield,KSGF,SGF,SGF,SPRINGFIELD,-93.38860321,37.24570084,,
292,GUL,"GULFPORT, MS",MS,unknown,GULFPORT,US-MS,KGPT,large_airport,Gulfport Biloxi International Airport,28.0,,US,Gulfport,KGPT,GPT,GPT,GULFPORT,-89.07009887695310,30.40730094909670,,
293,PAS,"PASCAGOULA, MS",MS,unknown,PASCAGOULA,US-MS,KPQL,small_airport,Trent Lott International Airport,17.0,,US,Pascagoula,KPQL,PGL,PQL,PASCAGOULA,-88.529197692871,30.462799072266,,
290,GPT,"BILOXI REGIONAL, MS",MS,unknown,BILOXI REGIONAL,US-MS,KGPT,large_airport,Gulfport Biloxi International Airport,28.0,,US,Gulfport,KGPT,GPT,GPT,GULFPORT,-89.07009887695310,30.40730094909670,,
291,GTR,"GOLDEN TRIANGLE LOWNDES CNTY, MS",MS,unknown,GOLDEN TRIANGLE LOWNDES CNTY,US-MS,KGTR,medium_airport,Golden Triangle Regional Airport,264.0,,US,Columbus/W Point/Starkville,KGTR,GTR,GTR,COLUMBUS/W POINT/STARKVILLE,-88.5914001465,33.450298309300000,,
294,JAN,"THOMPSON FIELD - JACKSON, MS",MS,unknown,THOMPSON FIELD - JACKSON,US-MS,,,,,,,,,,,,,,,
295,BIL,"BILLINGS, MT",MT,unknown,BILLINGS,US-MT,KBIL,large_airport,Billings Logan International Airport,3652.0,,US,Billings,KBIL,BIL,BIL,BILLINGS,-108.54299926757800,45.807701110839800,,
296,BTM,"BUTTE, MT",MT,unknown,BUTTE,US-MT,KBTM,medium_airport,Bert Mooney Airport,5550.0,,US,Butte,KBTM,BTM,BTM,BUTTE,-112.49700164794900,45.95479965209960,,
299,CUT,"CUT BANK, MT",MT,unknown,CUT BANK,US-MT,KCTB,medium_airport,Cut Bank International Airport,3854.0,,US,Cut Bank,KCTB,CTB,CTB,CUT BANK,-112.375999451,48.6083984375,,
304,GGW,"GLASGOW, MT",MT,unknown,GLASGOW,US-MT,KGGW,medium_airport,Wokal Field Glasgow International Airport,2296.0,,US,Glasgow,KGGW,GGW,GGW,GLASGOW,-106.614998,48.212502,,
306,GRE,"GREAT FALLS, MT",MT,unknown,GREAT FALLS,US-MT,KGTF,medium_airport,Great Falls International Airport,3680.0,,US,Great Falls,KGTF,GTF,GTF,GREAT FALLS,-111.3710022,47.48199844,,
307,HVR,"HAVRE, MT",MT,unknown,HAVRE,US-MT,KHVR,medium_airport,Havre City County Airport,2591.0,,US,Havre,KHVR,HVR,HVR,HAVRE,-109.762001,48.54299927,,
308,HEL,"HELENA, MT",MT,unknown,HELENA,US-MT,KHLN,medium_airport,Helena Regional Airport,3877.0,,US,Helena,KHLN,HLN,HLN,HELENA,-111.98300170898400,46.6068000793457,,
297,CHF,"CHIEF MT, MT",MT,unknown,CHIEF MT,US-MT,,,,,,,,,,,,,,,
298,CTB,"CUT BANK MUNICIPAL, MT",MT,unknown,CUT BANK MUNICIPAL,US-MT,KCTB,medium_airport,Cut Bank International Airport,3854.0,,US,Cut Bank,KCTB,CTB,CTB,CUT BANK,-112.375999451,48.6083984375,,
300,DLB,"DEL BONITA, MT",MT,unknown,DEL BONITA,US-MT,,,,,,,,,,,,,,,
301,EUR,"EUREKA, MT (BPS)",MT,(BPS),EUREKA,US-MT,,,,,,,,,,,,,,,
302,BZN,"GALLATIN FIELD - BOZEMAN, MT",MT,unknown,GALLATIN FIELD - BOZEMAN,US-MT,KBZN,medium_airport,Gallatin Field,4473.0,,US,Bozeman,KBZN,BZN,BZN,BOZEMAN,-111.1529999,45.77750015,,
303,FCA,"GLACIER NATIONAL PARK, MT",MT,unknown,GLACIER NATIONAL PARK,US-MT,,,,,,,,,,,,,,,
231,KAL,"KALISPEL, MT",MT,unknown,KALISPEL,US-MT,,,,,,,,,,,,,,,
309,LWT,"LEWISTON, MT",MT,unknown,LEWISTON,US-MT,,,,,,,,,,,,,,,
310,MGM,"MORGAN, MT",MT,unknown,MORGAN,US-MT,,,,,,,,,,,,,,,
311,OPH,"OPHEIM, MT",MT,unknown,OPHEIM,US-MT,,,,,,,,,,,,,,,
312,PIE,"PIEGAN, MT",MT,unknown,PIEGAN,US-MT,,,,,,,,,,,,,,,
313,RAY,"RAYMOND, MT",MT,unknown,RAYMOND,US-MT,,,,,,,,,,,,,,,
314,ROO,"ROOSVILLE, MT",MT,unknown,ROOSVILLE,US-MT,,,,,,,,,,,,,,,
315,SCO,"SCOBEY, MT",MT,unknown,SCOBEY,US-MT,,,,,,,,,,,,,,,
316,SWE,"SWEETGTASS, MT",MT,unknown,SWEETGTASS,US-MT,,,,,,,,,,,,,,,
317,TRL,"TRIAL CREEK, MT",MT,unknown,TRIAL CREEK,US-MT,,,,,,,,,,,,,,,
318,TUR,"TURNER, MT",MT,unknown,TURNER,US-MT,,,,,,,,,,,,,,,
288,WHI,"WHITETAIL, MT",MT,unknown,WHITETAIL,US-MT,,,,,,,,,,,,,,,
289,WHM,"WILD HORSE, MT",MT,unknown,WILD HORSE,US-MT,,,,,,,,,,,,,,,
319,WCM,"WILLOW CREEK, MT",MT,unknown,WILLOW CREEK,US-MT,,,,,,,,,,,,,,,
664,MTY,"GEN M. ESCOBEDO, Monterrey, MX",MX,unknown,"GEN M. ESCOBEDO, Monterrey",US-MX,MMMY,large_airport,General Mariano Escobedo International Airport,1278.0,,MX,Monterrey,MMMY,MTY,,MONTERREY,-100.107002258,25.7784996033,,
665,HMO,"GEN PESQUEIRA GARCIA, MX",MX,unknown,GEN PESQUEIRA GARCIA,US-MX,MMHO,large_airport,General Ignacio P. Garcia International Airport,627.0,,MX,Hermosillo,MMHO,HMO,,HERMOSILLO,-111.047996521,29.09589958,,
667,GDL,"GUADALAJARA, MIGUEL HIDAL, MX",MX,unknown,"GUADALAJARA, MIGUEL HIDAL",US-MX,MMGL,large_airport,Don Miguel Hidalgo Y Costilla International Airport,5016,,MX,Guadalajara,MMGL,GDL,,GUADALAJARA,-103.310997009,20.521799,,
676,MEX,"JUAREZ INTL, MEXICO CITY, MX",MX,unknown,"JUAREZ INTL, MEXICO CITY",US-MX,MMMX,large_airport,Licenciado Benito Juarez International Airport,7316,,MX,Mexico City,MMMX,MEX,ME1,MEXICO CITY,-99.072098,19.4363,,
321,CLT,"CHARLOTTE, NC",NC,unknown,CHARLOTTE,US-NC,KCLT,large_airport,Charlotte Douglas International Airport,748.0,,US,Charlotte,KCLT,CLT,CLT,CHARLOTTE,-80.94309997558590,35.2140007019043,,
322,FAY,"FAYETTEVILLE, NC",NC,unknown,FAYETTEVILLE,US-NC,KFAY,medium_airport,Fayetteville Regional Grannis Field,189.0,,US,Fayetteville,KFAY,FAY,FAY,FAYETTEVILLE,-78.88030242919920,34.9911994934082,,
327,RDU,"RALEIGH/DURHAM, NC",NC,unknown,RALEIGH/DURHAM,US-NC,KRDU,large_airport,Raleigh Durham International Airport,435.0,,US,Raleigh/Durham,KRDU,RDU,RDU,RALEIGH/DURHAM,-78.7874984741211,35.877601623535200,,
329,WIL,"WILMINGTON, NC",NC,unknown,WILMINGTON,US-NC,KILM,medium_airport,Wilmington International Airport,32.0,,US,Wilmington,KILM,ILM,ILM,WILMINGTON,-77.90260314941410,34.270599365234400,,
324,MRH,"MOREHEAD CITY, NC",NC,unknown,MOREHEAD CITY,US-NC,,,,,,,,,,,,,,,
325,FOP,"MORRIS FIELDS AAF, NC",NC,unknown,MORRIS FIELDS AAF,US-NC,,,,,,,,,,,,,,,
326,GSO,"PIEDMONT TRIAD INTL AIRPORT, NC",NC,unknown,PIEDMONT TRIAD INTL AIRPORT,US-NC,KGSO,large_airport,Piedmont Triad International Airport,925.0,,US,Greensboro,KGSO,GSO,GSO,GREENSBORO,-79.93730163574220,36.097801208496100,,
328,SSC,"SHAW AFB - SUMTER, NC",NC,unknown,SHAW AFB - SUMTER,US-NC,KSSC,large_airport,Shaw Air Force Base,241.0,,US,Sumter,KSSC,SSC,SSC,SUMTER,-80.47059631,33.97269821,,
334,FAR,"FARGO, ND",ND,unknown,FARGO,US-ND,KFAR,medium_airport,Hector International Airport,902.0,,US,Fargo,KFAR,FAR,FAR,FARGO,-96.81580352783200,46.92070007324220,,
336,GRF,"GRAND FORKS, ND",ND,unknown,GRAND FORKS,US-ND,KGFK,medium_airport,Grand Forks International Airport,845.0,,US,Grand Forks,KGFK,GFK,GFK,GRAND FORKS,-97.176102,47.949299,,
342,MND,"MINOT, ND",ND,unknown,MINOT,US-ND,KMOT,medium_airport,Minot International Airport,1716.0,,US,Minot,KMOT,MOT,MOT,MINOT,-101.27999877929700,48.2593994140625,,
346,PEM,"PEMBINA, ND",ND,unknown,PEMBINA,US-ND,KPMB,small_airport,Pembina Municipal Airport,795.0,,US,Pembina,KPMB,PMB,PMB,PEMBINA,-97.2407989502,48.9425010681,,
352,WND,"WILLISTON, ND",ND,unknown,WILLISTON,US-ND,KISN,medium_airport,Sloulin Field International Airport,1982.0,,US,Williston,KISN,ISN,ISN,WILLISTON,-103.641998291,48.177898407,,
330,AMB,"AMBROSE, ND",ND,unknown,AMBROSE,US-ND,,,,,,,,,,,,,,,
331,ANT,"ANTLER, ND",ND,unknown,ANTLER,US-ND,,,,,,,,,,,,,,,
332,CRY,"CARBURY, ND",ND,unknown,CARBURY,US-ND,,,,,,,,,,,,,,,
333,DNS,"DUNSEITH, ND",ND,unknown,DUNSEITH,US-ND,,,,,,,,,,,,,,,
335,FRT,"FORTUNA, ND",ND,unknown,FORTUNA,US-ND,,,,,,,,,,,,,,,
338,HNN,"HANNAH, ND",ND,unknown,HANNAH,US-ND,,,,,,,,,,,,,,,
339,HNS,"HANSBORO, ND",ND,unknown,HANSBORO,US-ND,,,,,,,,,,,,,,,
340,MAI,"MAIDA, ND",ND,unknown,MAIDA,US-ND,,,,,,,,,,,,,,,
343,NEC,"NECHE, ND",ND,unknown,NECHE,US-ND,,,,,,,,,,,,,,,
344,NOO,"NOONAN, ND",ND,unknown,NOONAN,US-ND,,,,,,,,,,,,,,,
345,NRG,"NORTHGATE, ND",ND,unknown,NORTHGATE,US-ND,,,,,,,,,,,,,,,
347,SAR,"SARLES, ND",ND,unknown,SARLES,US-ND,,,,,,,,,,,,,,,
348,SHR,"SHERWOOD, ND",ND,unknown,SHERWOOD,US-ND,,,,,,,,,,,,,,,
349,SJO,"ST JOHN, ND",ND,unknown,ST JOHN,US-ND,,,,,,,,,,,,,,,
350,WAL,"WALHALLA, ND",ND,unknown,WALHALLA,US-ND,,,,,,,,,,,,,,,
351,WHO,"WESTHOPE, ND",ND,unknown,WESTHOPE,US-ND,,,,,,,,,,,,,,,
354,OMA,"OMAHA, NE",NE,unknown,OMAHA,US-NE,KOMA,large_airport,Eppley Airfield,984.0,,US,Omaha,KOMA,OMA,OMA,OMAHA,-95.894096,41.3032,,
355,LEB,"LEBANON, NH",NH,unknown,LEBANON,US-NH,KLEB,medium_airport,Lebanon Municipal Airport,603.0,,US,Lebanon,KLEB,LEB,LEB,LEBANON,-72.30419921880000,43.626098632800000,,
356,MHT,"MANCHESTER, NH",NH,unknown,MANCHESTER,US-NH,KMHT,medium_airport,Manchester-Boston Regional Airport,266.0,,US,Manchester,KMHT,MHT,MHT,MANCHESTER,-71.435699,42.932598,,
358,PSM,"PORTSMOUTH, NH",NH,unknown,PORTSMOUTH,US-NH,KPSM,medium_airport,Portsmouth International at Pease Airport,100.0,,US,Portsmouth,KPSM,PSM,PSM,PORTSMOUTH,-70.8233032227,43.0778999329,,
357,PNH,"PITTSBURG, NH",NH,unknown,PITTSBURG,US-NH,,,,,,,,,,,,,,,
364,MMU,"MORRISTOWN, NJ",NJ,unknown,MORRISTOWN,US-NJ,KMMU,medium_airport,Morristown Municipal Airport,187.0,,US,Morristown,KMMU,MMU,MMU,MORRISTOWN,-74.41490173339840,40.799400329589800,,
359,BYO,"BAYONNE, NJ",NJ,unknown,BAYONNE,US-NJ,,,,,,,,,,,,,,,
360,CNJ,"CAMDEN, NJ",NJ,unknown,CAMDEN,US-NJ,,,,,,,,,,,,,,,
361,HOB,"HOBOKEN, NJ",NJ,unknown,HOBOKEN,US-NJ,,,,,,,,,,,,,,,
362,JER,"JERSEY CITY, NJ",NJ,unknown,JERSEY CITY,US-NJ,,,,,,,,,,,,,,,
363,WRI,"MC GUIRE AFB - WRIGHTSOWN, NJ",NJ,unknown,MC GUIRE AFB - WRIGHTSOWN,US-NJ,KWRI,medium_airport,Mc Guire Air Force Base,131.0,,US,Wrightstown,KWRI,WRI,WRI,WRIGHTSTOWN,-74.59169769,40.0155983,,
365,NEW,"NEWARK/TETERBORO, NJ",NJ,unknown,NEWARK/TETERBORO,US-NJ,KEWR,large_airport,Newark Liberty International Airport,18.0,,US,Newark,KEWR,EWR,EWR,NEWARK,-74.168701171875,40.692501068115200,,
366,PER,"PERTH AMBOY, NJ",NJ,unknown,PERTH AMBOY,US-NJ,,,,,,,,,,,,,,,
367,ACY,"POMONA FIELD - ATLANTIC CITY, NJ",NJ,unknown,POMONA FIELD - ATLANTIC CITY,US-NJ,,,,,,,,,,,,,,,
369,ABQ,"ALBUQUERQUE, NM",NM,unknown,ALBUQUERQUE,US-NM,KABQ,large_airport,Albuquerque International Sunport,5355.0,,US,Albuquerque,KABQ,ABQ,ABQ,ALBUQUERQUE,-106.609001,35.040199,,
371,CRL,"CARLSBAD, NM",NM,unknown,CARLSBAD,US-NM,KCNM,medium_airport,Cavern City Air Terminal,3295.0,,US,Carlsbad,KCNM,CNM,CNM,CARLSBAD,-104.26300048828100,32.337501525878900,,
374,DNM,"DEMING, NM (BPS)",NM,(BPS),DEMING,US-NM,KDMN,medium_airport,Deming Municipal Airport,4314.0,,US,Deming,KDMN,DMN,DMN,DEMING,-107.721000671,32.262298584,,
375,LAS,"LAS CRUCES, NM",NM,unknown,LAS CRUCES,US-NM,KLRU,medium_airport,Las Cruces International Airport,4456.0,,US,Las Cruces,KLRU,LRU,LRU,LAS CRUCES,-106.9219970703130,32.289398193359400,,
376,LOB,"LORDSBURG, NM (BPS)",NM,(BPS),LORDSBURG,US-NM,KLSB,small_airport,Lordsburg Municipal Airport,4289.0,,US,Lordsburg,KLSB,LSB,LSB,LORDSBURG,-108.692001343,32.3334999084,,
377,RUI,"RUIDOSO, NM",NM,unknown,RUIDOSO,US-NM,KSRR,medium_airport,Sierra Blanca Regional Airport,6814.0,,US,Ruidoso,KSRR,RUI,SRR,RUIDOSO,-105.53500366211,33.462799072266,,
368,ALA,"ALAMAGORDO, NM (BPS)",NM,(BPS),ALAMAGORDO,US-NM,,,,,,,,,,,,,,,
370,ANP,"ANTELOPE WELLS, NM",NM,unknown,ANTELOPE WELLS,US-NM,,,,,,,,,,,,,,,
372,COL,"COLUMBUS, NM",NM,unknown,COLUMBUS,US-NM,,,,,,,,,,,,,,,
373,CDD,"CRANE LAKE - ST. LOUIS CNTY, NM",NM,unknown,CRANE LAKE - ST. LOUIS CNTY,US-NM,,,,,,,,,,,,,,,
378,STR,"SANTA TERESA, NM",NM,unknown,SANTA TERESA,US-NM,,,,,,,,,,,,,,,
382,LVG,"LAS VEGAS, NV",NV,unknown,LAS VEGAS,US-NV,KLAS,large_airport,McCarran International Airport,2181.0,,US,Las Vegas,KLAS,LAS,LAS,LAS VEGAS,-115.1520004,36.08010101,,
385,REN,"RENO, NV",NV,unknown,RENO,US-NV,KRNO,large_airport,Reno Tahoe International Airport,4415.0,,US,Reno,KRNO,RNO,RNO,RENO,-119.76799774169900,39.49909973144530,,
379,RNO,"CANNON INTL - RENO/TAHOE, NV",NV,unknown,CANNON INTL - RENO/TAHOE,US-NV,KRNO,large_airport,Reno Tahoe International Airport,4415.0,,US,Reno,KRNO,RNO,RNO,RENO,-119.76799774169900,39.49909973144530,,
380,FLX,"FALLON MUNICIPAL AIRPORT, NV",NV,unknown,FALLON MUNICIPAL AIRPORT,US-NV,KFLX,small_airport,Fallon Municipal Airport,3963.0,,US,Fallon,KFLX,FLX,FLX,FALLON,-118.749000549,39.4990997314,,
386,ALB,"ALBANY, NY",NY,unknown,ALBANY,US-NY,KALB,medium_airport,Albany International Airport,285.0,,US,Albany,KALB,ALB,ALB,ALBANY,-73.80169677734380,42.74829864501950,,
387,AXB,"ALEXANDRIA BAY, NY",NY,unknown,ALEXANDRIA BAY,US-NY,89NY,small_airport,Maxson Airfield,340.0,,US,Alexandria Bay,89NY,AXB,89NY,ALEXANDRIA BAY,-75.90034,44.312002,,
388,BUF,"BUFFALO, NY",NY,unknown,BUFFALO,US-NY,KBUF,large_airport,Buffalo Niagara International Airport,728.0,,US,Buffalo,KBUF,BUF,BUF,BUFFALO,-78.73220062,42.94049835,,
397,MAS,"MASSENA, NY",NY,unknown,MASSENA,US-NY,KMSS,medium_airport,Massena International Richards Field,215.0,,US,Massena,KMSS,MSS,MSS,MASSENA,-74.84559631347660,44.93579864501950,,
406,NYC,"NEW YORK, NY",NY,unknown,NEW YORK,US-NY,KJFK,large_airport,John F Kennedy International Airport,13.0,,US,New York,KJFK,JFK,JFK,NEW YORK,-73.77890015,40.63980103,,
408,NIA,"NIAGARA FALLS, NY",NY,unknown,NIAGARA FALLS,US-NY,KIAG,medium_airport,Niagara Falls International Airport,589.0,,US,Niagara Falls,KIAG,IAG,IAG,NIAGARA FALLS,-78.94619750976560,43.1072998046875,,
409,OGD,"OGDENSBURG, NY",NY,unknown,OGDENSBURG,US-NY,KOGS,small_airport,Ogdensburg International Airport,297.0,,US,Ogdensburg,KOGS,OGS,OGS,OGDENSBURG,-75.46549987790000,44.6819000244,,
412,ROC,"ROCHESTER, NY",NY,unknown,ROCHESTER,US-NY,KROC,large_airport,Greater Rochester International Airport,559.0,,US,Rochester,KROC,ROC,ROC,ROCHESTER,-77.67240142822270,43.118900299072300,,
710,RME,"ROME, NY",NY,unknown,ROME,US-NY,KRME,medium_airport,Griffiss International Airport,504.0,,US,Rome,KRME,RME,RME,ROME,-75.40699768,43.23379898,,
413,ROU,"ROUSES POINT, NY",NY,unknown,ROUSES POINT,US-NY,K21,seaplane_base,Rouses Point Seaplane Base,95.0,,US,Rouses Point,K21,RSX,K21,ROUSES POINT,-73.363502502441,44.99169921875,,
415,SYR,"SYRACUSE, NY",NY,unknown,SYRACUSE,US-NY,KSYR,large_airport,Syracuse Hancock International Airport,421.0,,US,Syracuse,KSYR,SYR,SYR,SYRACUSE,-76.1063003540039,43.11119842529300,,
418,WAT,"WATERTOWN, NY",NY,unknown,WATERTOWN,US-NY,KART,medium_airport,Watertown International Airport,325.0,,US,Watertown,KART,ART,ART,WATERTOWN,-76.02169799804690,43.99190139770510,,
389,CNH,"CANNON CORNERS, NY",NY,unknown,CANNON CORNERS,US-NY,,,,,,,,,,,,,,,
697,CNC,"CANNON CORNERS, NY",NY,unknown,CANNON CORNERS,US-NY,,,,,,,,,,,,,,,
390,CAP,"CAPE VINCENT, NY",NY,unknown,CAPE VINCENT,US-NY,,,,,,,,,,,,,,,
391,CHM,"CHAMPLAIN, NY",NY,unknown,CHAMPLAIN,US-NY,,,,,,,,,,,,,,,
392,CHT,"CHATEAUGAY, NY",NY,unknown,CHATEAUGAY,US-NY,,,,,,,,,,,,,,,
393,CLA,"CLAYTON, NY",NY,unknown,CLAYTON,US-NY,,,,,,,,,,,,,,,
394,FTC,"FORT COVINGTON, NY",NY,unknown,FORT COVINGTON,US-NY,,,,,,,,,,,,,,,
395,LAG,"LA GUARDIA, NY",NY,unknown,LA GUARDIA,US-NY,KLGA,large_airport,La Guardia Airport,21.0,,US,New York,KLGA,LGA,LGA,NEW YORK,-73.87259674,40.77719879,,
396,LEW,"LEWISTON, NY",NY,unknown,LEWISTON,US-NY,,,,,,,,,,,,,,,
398,MAG,"MCGUIRE AFB, NY",NY,unknown,MCGUIRE AFB,US-NY,KWRI,medium_airport,Mc Guire Air Force Base,131.0,,US,Wrightstown,KWRI,WRI,WRI,WRIGHTSTOWN,-74.59169769,40.0155983,,
399,MOO,"MOORES, NY",NY,unknown,MOORES,US-NY,,,,,,,,,,,,,,,
400,MRR,"MORRISTOWN, NY",NY,unknown,MORRISTOWN,US-NY,,,,,,,,,,,,,,,
410,OSW,"OSWEGO, NY",NY,unknown,OSWEGO,US-NY,,,,,,,,,,,,,,,
538,PBB,"PEACE BRIDGE, NY",NY,unknown,PEACE BRIDGE,US-NY,,,,,,,,,,,,,,,
411,ELM,"REGIONAL ARPT - HORSEHEAD, NY",NY,unknown,REGIONAL ARPT - HORSEHEAD,US-NY,KELM,medium_airport,Elmira Corning Regional Airport,954.0,,US,Elmira/Corning,KELM,ELM,ELM,ELMIRA/CORNING,-76.8916015625,42.1599006652832,,
414,SWF,"STEWART - ORANGE CNTY, NY",NY,unknown,STEWART - ORANGE CNTY,US-NY,KSWF,medium_airport,Stewart International Airport,491.0,,US,Newburgh,KSWF,SWF,SWF,NEWBURGH,-74.10479736328130,41.50410079956060,,
704,FOK,"SUFFOLK COUNTY, NY",NY,unknown,SUFFOLK COUNTY,US-NY,,,,,,,,,,,,,,,
416,THO,"THOUSAND ISLAND BRIDGE, NY",NY,unknown,THOUSAND ISLAND BRIDGE,US-NY,,,,,,,,,,,,,,,
417,TRO,"TROUT RIVER, NY",NY,unknown,TROUT RIVER,US-NY,,,,,,,,,,,,,,,
419,HPN,"WESTCHESTER - WHITE PLAINS, NY",NY,unknown,WESTCHESTER - WHITE PLAINS,US-NY,KHPN,medium_airport,Westchester County Airport,439.0,,US,White Plains,KHPN,HPN,HPN,WHITE PLAINS,-73.70760345458980,41.06700134277340,,
420,WRB,"WHIRLPOOL BRIDGE, NY",NY,unknown,WHIRLPOOL BRIDGE,US-NY,,,,,,,,,,,,,,,
421,YOU,"YOUNGSTOWN, NY",NY,unknown,YOUNGSTOWN,US-NY,,,,,,,,,,,,,,,
422,AKR,"AKRON, OH",OH,unknown,AKRON,US-OH,KAKR,medium_airport,Akron Fulton International Airport,1067.0,,US,Akron,KAKR,AKC,AKR,AKRON,-81.4669036865,41.0374984741,,
703,CAK,"AKRON, OH",OH,unknown,AKRON,US-OH,KCAK,medium_airport,Akron Canton Regional Airport,1228.0,,US,Akron,KCAK,CAK,CAK,AKRON,-81.44219970703130,40.916099548339800,,
424,ATB,"ASHTABULA, OH",OH,unknown,ASHTABULA,US-OH,KHZY,small_airport,Northeast Ohio Regional Airport,924.0,,US,Ashtabula,KHZY,JFN,HZY,ASHTABULA,-80.6955032349,41.7779998779,,
425,CIN,"CINCINNATI, OH",OH,unknown,CINCINNATI,US-OH,KLUK,medium_airport,Cincinnati Municipal Airport Lunken Field,483.0,,US,Cincinnati,KLUK,LUK,LUK,CINCINNATI,-84.41860199,39.10329819,,
428,CLE,"CLEVELAND, OH",OH,unknown,CLEVELAND,US-OH,KCLE,large_airport,Cleveland Hopkins International Airport,791.0,,US,Cleveland,KCLE,CLE,CLE,CLEVELAND,-81.8498001099,41.4117012024,,
429,CLM,"COLUMBUS, OH",OH,unknown,COLUMBUS,US-OH,KCMH,large_airport,John Glenn Columbus International Airport,815.0,,US,Columbus,KCMH,CMH,CMH,COLUMBUS,-82.891899,39.998001,,
434,SDY,"SANDUSKY, OH",OH,unknown,SANDUSKY,US-OH,,,,,,,,,,,,,,,
436,TOL,"TOLEDO, OH",OH,unknown,TOLEDO,US-OH,KTOL,large_airport,Toledo Express Airport,683.0,,US,Toledo,KTOL,TOL,TOL,TOLEDO,-83.80780029,41.58679962,,
432,LOR,"LORAIN, OH",OH,unknown,LORAIN,US-OH,,,,,,,,,,,,,,,
433,MBO,"MARBLE HEADS, OH",OH,unknown,MARBLE HEADS,US-OH,,,,,,,,,,,,,,,
451,PUT,"PUT-IN-BAY, OH",OH,unknown,PUT-IN-BAY,US-OH,,,,,,,,,,,,,,,
437,OKC,"OKLAHOMA CITY, OK",OK,unknown,OKLAHOMA CITY,US-OK,KOKC,large_airport,Will Rogers World Airport,1295.0,,US,Oklahoma City,KOKC,OKC,OKC,OKLAHOMA CITY,-97.60070037841800,35.39310073852540,,
442,TUL,"TULSA, OK",OK,unknown,TULSA,US-OK,KTUL,large_airport,Tulsa International Airport,677.0,,US,Tulsa,KTUL,TUL,TUL,TULSA,-95.88809967041020,36.19839859008790,,
443,AST,"ASTORIA, OR",OR,unknown,ASTORIA,US-OR,KAST,medium_airport,Astoria Regional Airport,15.0,,US,Astoria,KAST,AST,AST,ASTORIA,-123.878997803,46.158000946,,
446,MED,"MEDFORD, OR",OR,unknown,MEDFORD,US-OR,KMFR,medium_airport,Rogue Valley International Medford Airport,1335.0,,US,Medford,KMFR,MFR,MFR,MEDFORD,-122.87300109863300,42.37419891357420,,
447,NPT,"NEWPORT, OR",OR,unknown,NEWPORT,US-OR,KONP,medium_airport,Newport Municipal Airport,160.0,,US,Newport,KONP,ONP,ONP,NEWPORT,-124.057999,44.580399,,
449,POO,"PORTLAND, OR",OR,unknown,PORTLAND,US-OR,KPDX,large_airport,Portland International Airport,31.0,,US,Portland,KPDX,PDX,PDX,PORTLAND,-122.5979996,45.58869934,,
444,COO,"COOS BAY, OR",OR,unknown,COOS BAY,US-OR,,,,,,,,,,,,,,,
445,HIO,"HILLSBORO, OR",OR,unknown,HILLSBORO,US-OR,,,,,,,,,,,,,,,
452,RDM,"ROBERTS FIELDS - REDMOND, OR",OR,unknown,ROBERTS FIELDS - REDMOND,US-OR,KRDM,medium_airport,Roberts Field,3080.0,,US,Redmond,KRDM,RDM,RDM,REDMOND,-121.1500015,44.2541008,,
453,ERI,"ERIE, PA",PA,unknown,ERIE,US-PA,KERI,large_airport,Erie International Tom Ridge Field,732.0,,US,Erie,KERI,ERI,ERI,ERIE,-80.1738667488,42.0831270134,,
454,MDT,"HARRISBURG, PA",PA,unknown,HARRISBURG,US-PA,KCXY,small_airport,Capital City Airport,347.0,,US,Harrisburg,KCXY,HAR,CXY,HARRISBURG,-76.85150146480000,40.2170982361,,
458,PHI,"PHILADELPHIA, PA",PA,unknown,PHILADELPHIA,US-PA,KPHL,large_airport,Philadelphia International Airport,36.0,,US,Philadelphia,KPHL,PHL,PHL,PHILADELPHIA,-75.24109649658200,39.87189865112310,,
456,HSB,"HARRISONBURG, PA",PA,unknown,HARRISONBURG,US-PA,,,,,,,,,,,,,,,
460,PIT,"PITTSBURG, PA",PA,unknown,PITTSBURG,US-PA,,,,,,,,,,,,,,,
461,AGU,"AGUADILLA, PR",PR,unknown,AGUADILLA,US-PR,,,,,,,,,,,,,,,
462,BQN,"BORINQUEN - AGUADILLO, PR",PR,unknown,BORINQUEN - AGUADILLO,US-PR,TJPQ,medium_airport,Rafael Hernandez Airport,237.0,,PR,Aguadilla,TJBQ,BQN,BQN,AGUADILLA,-67.129402,18.4948997,,
463,JCP,"CULEBRA - BENJAMIN RIVERA, PR",PR,unknown,CULEBRA - BENJAMIN RIVERA,US-PR,TJCP,small_airport,Benjamin Rivera Noriega Airport,49,,PR,Culebra Island,TJCP,CPX,CPX,CULEBRA ISLAND,-65.304324,18.313289,,
464,ENS,"ENSENADA, PR",PR,unknown,ENSENADA,US-PR,,,,,,,,,,,,,,,
465,FAJ,"FAJARDO, PR",PR,unknown,FAJARDO,US-PR,,,,,,,,,,,,,,,
466,HUM,"HUMACAO, PR",PR,unknown,HUMACAO,US-PR,,,,,,,,,,,,,,,
467,JOB,"JOBOS, PR",PR,unknown,JOBOS,US-PR,,,,,,,,,,,,,,,
468,MAY,"MAYAGUEZ, PR",PR,unknown,MAYAGUEZ,US-PR,,,,,,,,,,,,,,,
469,PON,"PONCE, PR",PR,unknown,PONCE,US-PR,,,,,,,,,,,,,,,
470,PSE,"PONCE-MERCEDITA, PR",PR,unknown,PONCE-MERCEDITA,US-PR,TJPS,medium_airport,Mercedita Airport,29.0,,PR,Ponce,TJPS,PSE,PSE,PONCE,-66.5630035,18.008301,,
471,SAJ,"SAN JUAN, PR",PR,unknown,SAN JUAN,US-PR,,,,,,,,,,,,,,,
472,VQS,"VIEQUES-ARPT, PR",PR,unknown,VIEQUES-ARPT,US-PR,TJCG,closed,Vieques Airport,19,,PR,Vieques Islance,TJCG,VQS,,VIEQUES ISLAND,-65.422699,18.1158,,
473,PRO,"PROVIDENCE, RI",RI,unknown,PROVIDENCE,US-RI,KPVD,medium_airport,Theodore Francis Green State Airport,55.0,,US,Providence,KPVD,PVD,PVD,PROVIDENCE,-71.42040252685550,41.732601165771500,,
474,PVD,"THEODORE FRANCIS - WARWICK, RI",RI,unknown,THEODORE FRANCIS - WARWICK,US-RI,KPVD,medium_airport,Theodore Francis Green State Airport,55.0,,US,Providence,KPVD,PVD,PVD,PROVIDENCE,-71.42040252685550,41.732601165771500,,
475,CHL,"CHARLESTON, SC",SC,unknown,CHARLESTON,US-SC,KCHS,large_airport,Charleston Air Force Base-International Airport,46.0,,US,Charleston,KCHS,CHS,CHS,CHARLESTON,-80.04049683,32.89860153,,
477,GEO,"GEORGETOWN, SC",SC,unknown,GEORGETOWN,US-SC,KGGE,small_airport,Georgetown County Airport,39.0,,US,Georgetown,KGGE,GGE,GGE,GEORGETOWN,-79.3196029663,33.3116989136,,
479,GSP,"GREENVILLE, SC",SC,unknown,GREENVILLE,US-SC,KGSP,large_airport,Greenville Spartanburg International Airport,964.0,,US,Greenville,KGSP,GSP,GSP,GREENVILLE,-82.2189025879,34.8956985474,,
482,MYR,"MYRTLE BEACH, SC",SC,unknown,MYRTLE BEACH,US-SC,KMYR,medium_airport,Myrtle Beach International Airport,25.0,,US,Myrtle Beach,KMYR,MYR,MYR,MYRTLE BEACH,-78.9282989502,33.6796989441,,
481,GRR,"GREER, SC",SC,unknown,GREER,US-SC,,,,,,,,,,,,,,,
483,SPF,"BLACK HILLS, SPEARFISH, SD",SD,unknown,"BLACK HILLS, SPEARFISH",US-SD,KSPF,small_airport,Black Hills Airport-Clyde Ice Field,3931.0,,US,Spearfish,KSPF,SPF,SPF,SPEARFISH,-103.78299713135,44.48030090332,,
484,HON,"HOWES REGIONAL ARPT - HURON, SD",SD,unknown,HOWES REGIONAL ARPT - HURON,US-SD,KHON,medium_airport,Huron Regional Airport,1289.0,,US,Huron,KHON,HON,HON,HURON,-98.22850036621090,44.38520050048830,,
487,MEM,"MEMPHIS, TN",TN,unknown,MEMPHIS,US-TN,KMEM,large_airport,Memphis International Airport,341.0,,US,Memphis,KMEM,MEM,MEM,MEMPHIS,-89.97669982910160,35.04240036010740,,
488,NSV,"NASHVILLE, TN",TN,unknown,NASHVILLE,US-TN,KBNA,large_airport,Nashville International Airport,599.0,,US,Nashville,KBNA,BNA,BNA,NASHVILLE,-86.6781997680664,36.1245002746582,,
486,TYS,"MC GHEE TYSON - ALCOA, TN",TN,unknown,MC GHEE TYSON - ALCOA,US-TN,KTYS,large_airport,McGhee Tyson Airport,981.0,,US,Knoxville,KTYS,TYS,TYS,KNOXVILLE,-83.9940033,35.81100082,,
489,TRI,"TRI CITY ARPT, TN",TN,unknown,TRI CITY ARPT,US-TN,KTRI,large_airport,Tri-Cities Regional TN/VA Airport,1519.0,,US,Bristol/Johnson/Kingsport,KTRI,TRI,TRI,BRISTOL/JOHNSON/KINGSPORT,-82.407401,36.475201,,
493,AUS,"AUSTIN, TX",TX,unknown,AUSTIN,US-TX,KAUS,large_airport,Austin Bergstrom International Airport,542.0,,US,Austin,KAUS,AUS,AUS,AUSTIN,-97.6698989868164,30.194499969482400,,
494,BEA,"BEAUMONT, TX",TX,unknown,BEAUMONT,US-TX,KBMT,small_airport,Beaumont Municipal Airport,32.0,,US,Beaumont,KBMT,BMT,BMT,BEAUMONT,-94.21579742430000,30.0706996918,,
499,BRO,"BROWNSVILLE, TX",TX,unknown,BROWNSVILLE,US-TX,KBRO,medium_airport,Brownsville South Padre Island International Airport,22.0,,US,Brownsville,KBRO,BRO,BRO,BROWNSVILLE,-97.4259033203125,25.90679931640630,,
500,CRP,"CORPUS CHRISTI, TX",TX,unknown,CORPUS CHRISTI,US-TX,KCRP,large_airport,Corpus Christi International Airport,44.0,,US,Corpus Christi,KCRP,CRP,CRP,CORPUS CHRISTI,-97.5011978149414,27.77039909362790,,
502,DAL,"DALLAS, TX",TX,unknown,DALLAS,US-TX,KDAL,large_airport,Dallas Love Field,487.0,,US,Dallas,KDAL,DAL,DAL,DALLAS,-96.851799,32.847099,,
505,DLR,"DEL RIO, TX",TX,unknown,DEL RIO,US-TX,KDRT,medium_airport,Del Rio International Airport,1002.0,,US,Del Rio,KDRT,DRT,DRT,DEL RIO,-100.927001953,29.3742008209,,
507,EGP,"EAGLE PASS, TX",TX,unknown,EAGLE PASS,US-TX,K5T9,small_airport,Maverick County Memorial International Airport,887.0,,US,Eagle Pass,5T9,EGP,5T9,EAGLE PASS,-100.512001,28.85720062,,
508,ELP,"EL PASO, TX",TX,unknown,EL PASO,US-TX,KELP,medium_airport,El Paso International Airport,3959.0,,US,El Paso,KELP,ELP,ELP,EL PASO,-106.3779984,31.80719948,,
514,GAL,"GALVESTON, TX",TX,unknown,GALVESTON,US-TX,KGLS,medium_airport,Scholes International At Galveston Airport,6.0,,US,Galveston,KGLS,GLS,GLS,GALVESTON,-94.86039733886720,29.265300750732400,,
515,HLG,"HARLINGEN, TX",TX,unknown,HARLINGEN,US-TX,KHRL,medium_airport,Valley International Airport,36.0,,US,Harlingen,KHRL,HRL,HRL,HARLINGEN,-97.65440368652340,26.228500366210900,,
517,HOU,"HOUSTON, TX",TX,unknown,HOUSTON,US-TX,KAAP,closed,Andrau Airpark,79.0,,US,Houston,KAAP,AAP,AAP,HOUSTON,-95.58830261230000,29.722499847400000,,
522,HOU,"HOUSTON, TX",TX,unknown,HOUSTON,US-TX,KIAH,large_airport,George Bush Intercontinental Houston Airport,97.0,,US,Houston,KIAH,IAH,IAH,HOUSTON,-95.34140014648440,29.984399795532200,,
530,LAR,"LAREDO, TX",TX,unknown,LAREDO,US-TX,KLRD,medium_airport,Laredo International Airport,508.0,,US,Laredo,KLRD,LRD,LRD,LAREDO,-99.46160125732420,27.543800354003900,,
534,MRS,"MARFA, TX (BPS)",TX,(BPS),MARFA,US-TX,KMRF,small_airport,Marfa Municipal Airport,4849.0,,US,Marfa,KMRF,MRF,MRF,MARFA,-104.017997,30.371099,,
706,MAR,"MARFA, TX",TX,unknown,MARFA,US-TX,KMRF,small_airport,Marfa Municipal Airport,4849.0,,US,Marfa,KMRF,MRF,MRF,MARFA,-104.017997,30.371099,,
546,ROM,"ROMA, TX",TX,unknown,ROMA,US-TX,FAL,closed,Falcon State Airport,358.0,,US,Roma,,FAL,,ROMA,-99.13985,26.5856,,
548,SNA,"SAN ANTONIO, TX",TX,unknown,SAN ANTONIO,US-TX,KSAT,large_airport,San Antonio International Airport,809.0,,US,San Antonio,KSAT,SAT,SAT,SAN ANTONIO,-98.46980285644530,29.533700942993200,,
490,ADS,"ADDISON AIRPORT- ADDISON, TX",TX,unknown,ADDISON AIRPORT- ADDISON,US-TX,KADS,small_airport,Addison Airport,644.0,,US,Dallas,KADS,ADS,ADS,DALLAS,-96.8364028931,32.9686012268,,
491,ADT,"AMISTAD DAM, TX",TX,unknown,AMISTAD DAM,US-TX,,,,,,,,,,,,,,,
492,ANZ,"ANZALDUAS, TX",TX,unknown,ANZALDUAS,US-TX,,,,,,,,,,,,,,,
495,BBP,"BIG BEND PARK, TX (BPS)",TX,(BPS),BIG BEND PARK,US-TX,,,,,,,,,,,,,,,
496,SCC,"BP SPEC COORD. CTR, TX",TX,unknown,BP SPEC COORD. CTR,US-TX,,,,,,,,,,,,,,,
497,BTC,"BP TACTICAL UNIT, TX",TX,unknown,BP TACTICAL UNIT,US-TX,,,,,,,,,,,,,,,
498,BOA,"BRIDGE OF AMERICAS, TX",TX,unknown,BRIDGE OF AMERICAS,US-TX,,,,,,,,,,,,,,,
506,DNA,"DONNA, TX",TX,unknown,DONNA,US-TX,,,,,,,,,,,,,,,
509,FAB,"FABENS, TX",TX,unknown,FABENS,US-TX,,,,,,,,,,,,,,,
510,FAL,"FALCON HEIGHTS, TX",TX,unknown,FALCON HEIGHTS,US-TX,,,,,,,,,,,,,,,
511,FTH,"FORT HANCOCK, TX",TX,unknown,FORT HANCOCK,US-TX,,,,,,,,,,,,,,,
512,AFW,"FORT WORTH ALLIANCE, TX",TX,unknown,FORT WORTH ALLIANCE,US-TX,KAFW,large_airport,Fort Worth Alliance Airport,722.0,,US,Fort Worth,KAFW,AFW,AFW,FORT WORTH,-97.31880187990000,32.9875984192,,
513,FPT,"FREEPORT, TX",TX,unknown,FREEPORT,US-TX,,,,,,,,,,,,,,,
516,HID,"HIDALGO, TX",TX,unknown,HIDALGO,US-TX,,,,,,,,,,,,,,,
526,SGR,"HULL FIELD, SUGAR LAND ARPT, TX",TX,unknown,"HULL FIELD, SUGAR LAND ARPT",US-TX,KSGR,medium_airport,Sugar Land Regional Airport,82.0,,US,Houston,KSGR,SGR,SGR,HOUSTON,-95.65650177002,29.622299194336,,
527,LLB,"JUAREZ-LINCOLN BRIDGE, TX",TX,unknown,JUAREZ-LINCOLN BRIDGE,US-TX,,,,,,,,,,,,,,,
528,LCB,"LAREDO COLUMBIA BRIDGE, TX",TX,unknown,LAREDO COLUMBIA BRIDGE,US-TX,,,,,,,,,,,,,,,
529,LRN,"LAREDO NORTH, TX",TX,unknown,LAREDO NORTH,US-TX,,,,,,,,,,,,,,,
531,LSE,"LOS EBANOS, TX",TX,unknown,LOS EBANOS,US-TX,,,,,,,,,,,,,,,
532,IND,"LOS INDIOS, TX",TX,unknown,LOS INDIOS,US-TX,,,,,,,,,,,,,,,
533,LOI,"LOS INDIOS, TX",TX,unknown,LOS INDIOS,US-TX,,,,,,,,,,,,,,,
535,MCA,"MCALLEN, TX",TX,unknown,MCALLEN,US-TX,,,,,,,,,,,,,,,
536,MAF,"ODESSA REGIONAL, TX",TX,unknown,ODESSA REGIONAL,US-TX,,,,,,,,,,,,,,,
539,PHR,"PHARR, TX",TX,unknown,PHARR,US-TX,,,,,,,,,,,,,,,
540,PAR,"PORT ARTHUR, TX",TX,unknown,PORT ARTHUR,US-TX,,,,,,,,,,,,,,,
541,ISB,"PORT ISABEL, TX",TX,unknown,PORT ISABEL,US-TX,,,,,,,,,,,,,,,
542,POE,"PORT OF EL PASO, TX",TX,unknown,PORT OF EL PASO,US-TX,,,,,,,,,,,,,,,
543,PRE,"PRESIDIO, TX",TX,unknown,PRESIDIO,US-TX,,,,,,,,,,,,,,,
544,PGR,"PROGRESO, TX",TX,unknown,PROGRESO,US-TX,,,,,,,,,,,,,,,
545,RIO,"RIO GRANDE CITY, TX",TX,unknown,RIO GRANDE CITY,US-TX,,,,,,,,,,,,,,,
551,SNN,"SANDERSON, TX",TX,unknown,SANDERSON,US-TX,,,,,,,,,,,,,,,
552,VIB,"VETERAN INTL BRIDGE, TX",TX,unknown,VETERAN INTL BRIDGE,US-TX,,,,,,,,,,,,,,,
553,YSL,"YSLETA, TX",TX,unknown,YSLETA,US-TX,,,,,,,,,,,,,,,
560,SLC,"SALT LAKE CITY, UT",UT,unknown,SALT LAKE CITY,US-UT,KSLC,large_airport,Salt Lake City International Airport,4227.0,,US,Salt Lake City,KSLC,SLC,SLC,SALT LAKE CITY,-111.97799682617200,40.78839874267580,,
559,LGU,"CACHE AIRPORT - LOGAN, UT",UT,unknown,CACHE AIRPORT - LOGAN,US-UT,KLGU,medium_airport,Logan-Cache Airport,4457.0,,US,Logan,KLGU,LGU,LGU,LOGAN,-111.851997375,41.7911987305,,
567,NOR,"NORFOLK, VA",VA,unknown,NORFOLK,US-VA,KORF,large_airport,Norfolk International Airport,26.0,,US,Norfolk,KORF,ORF,ORF,NORFOLK,-76.20120239257810,36.89459991455080,,
568,RCM,"RICHMOND, VA",VA,unknown,RICHMOND,US-VA,KRIC,large_airport,Richmond International Airport,167.0,,US,Richmond,KRIC,RIC,RIC,RICHMOND,-77.3197021484375,37.50519943237310,,
561,CHO,"ALBEMARLE CHARLOTTESVILLE, VA",VA,unknown,ALBEMARLE CHARLOTTESVILLE,US-VA,KCHO,medium_airport,Charlottesville Albemarle Airport,639.0,,US,Charlottesville,KCHO,CHO,CHO,CHARLOTTESVILLE,-78.4529037475586,38.13859939575200,,
562,DAA,"DAVISON AAF - FAIRFAX CNTY, VA",VA,unknown,DAVISON AAF - FAIRFAX CNTY,US-VA,KDAA,medium_airport,Davison Army Air Field,73.0,,US,Fort Belvoir,KDAA,DAA,DAA,FORT BELVOIR,-77.1809997559,38.715000152600000,,
563,HOP,"HOPEWELL, VA",VA,unknown,HOPEWELL,US-VA,,,,,,,,,,,,,,,
565,NWN,"NEWPORT, VA",VA,unknown,NEWPORT,US-VA,,,,,,,,,,,,,,,
554,CHA,"CHARLOTTE AMALIE, VI",VI,unknown,CHARLOTTE AMALIE,US-VI,,,,,,,,,,,,,,,
555,CHR,"CHRISTIANSTED, VI",VI,unknown,CHRISTIANSTED,US-VI,,,,,,,,,,,,,,,
556,CRU,"CRUZ BAY, ST JOHN, VI",VI,unknown,"CRUZ BAY, ST JOHN",US-VI,,,,,,,,,,,,,,,
557,FRK,"FREDERIKSTED, VI",VI,unknown,FREDERIKSTED,US-VI,,,,,,,,,,,,,,,
558,STT,"ST THOMAS, VI",VI,unknown,ST THOMAS,US-VI,,,,,,,,,,,,,,,
573,BRG,"BURLINGTON, VT",VT,unknown,BURLINGTON,US-VT,KBTV,medium_airport,Burlington International Airport,335.0,,US,Burlington,KBTV,BTV,BTV,BURLINGTON,-73.15329742430000,44.471900939900000,,
580,NPV,"NEWPORT, VT",VT,unknown,NEWPORT,US-VT,KEFK,small_airport,Northeast Kingdom International Airport,930.0,,US,Newport,KEFK,EFK,EFK,NEWPORT,-72.229202,44.888802,,
570,ABG,"ALBURG, VT",VT,unknown,ALBURG,US-VT,,,,,,,,,,,,,,,
569,ABS,"ALBURG SPRINGS, VT",VT,unknown,ALBURG SPRINGS,US-VT,,,,,,,,,,,,,,,
571,BEB,"BEEBE PLAIN, VT",VT,unknown,BEEBE PLAIN,US-VT,,,,,,,,,,,,,,,
572,BEE,"BEECHER FALLS, VT",VT,unknown,BEECHER FALLS,US-VT,,,,,,,,,,,,,,,
574,CNA,"CANAAN, VT",VT,unknown,CANAAN,US-VT,,,,,,,,,,,,,,,
577,ERC,"EAST RICHFORD, VT",VT,unknown,EAST RICHFORD,US-VT,,,,,,,,,,,,,,,
578,HIG,"HIGHGATE SPRINGS, VT",VT,unknown,HIGHGATE SPRINGS,US-VT,,,,,,,,,,,,,,,
579,MOR,"MORSES LINE, VT",VT,unknown,MORSES LINE,US-VT,,,,,,,,,,,,,,,
581,NRT,"NORTH TROY, VT",VT,unknown,NORTH TROY,US-VT,,,,,,,,,,,,,,,
582,NRN,"NORTON, VT",VT,unknown,NORTON,US-VT,,,,,,,,,,,,,,,
583,PIV,"PINNACLE ROAD, VT",VT,unknown,PINNACLE ROAD,US-VT,,,,,,,,,,,,,,,
584,RIF,"RICHFORT, VT",VT,unknown,RICHFORT,US-VT,,,,,,,,,,,,,,,
585,STA,"ST ALBANS, VT",VT,unknown,ST ALBANS,US-VT,,,,,,,,,,,,,,,
587,WBE,"WEST BERKSHIRE, VT",VT,unknown,WEST BERKSHIRE,US-VT,,,,,,,,,,,,,,,
589,ANA,"ANACORTES, WA",WA,unknown,ANACORTES,US-WA,K74S,small_airport,Anacortes Airport,241.0,,US,Anacortes,,OTS,74S,ANACORTES,-122.662003,48.499,,
590,BEL,"BELLINGHAM, WA",WA,unknown,BELLINGHAM,US-WA,KBLI,medium_airport,Bellingham International Airport,170.0,,US,Bellingham,KBLI,BLI,BLI,BELLINGHAM,-122.53800201416000,48.79280090332030,,
596,EVE,"EVERETT, WA",WA,unknown,EVERETT,US-WA,KPAE,medium_airport,Snohomish County (Paine Field) Airport,606.0,,US,Everett,KPAE,PAE,PAE,EVERETT,-122.2819977,47.90629959,,
598,FRI,"FRIDAY HARBOR, WA",WA,unknown,FRIDAY HARBOR,US-WA,KFHR,small_airport,Friday Harbor Airport,113.0,,US,Friday Harbor,KFHR,FRD,FHR,FRIDAY HARBOR,-123.024002075,48.5219993591,,
599,FRI,"FRIDAY HARBOR, WA",WA,unknown,FRIDAY HARBOR,US-WA,W33,seaplane_base,Friday Harbor Seaplane Base,,,US,Friday Harbor,W33,FBS,W33,FRIDAY HARBOR,-123.010002136,48.537300109900000,,
608,OLY,"OLYMPIA, WA",WA,unknown,OLYMPIA,US-WA,KOLM,medium_airport,Olympia Regional Airport,209.0,,US,Olympia,KOLM,OLM,OLM,OLYMPIA,-122.9029999,46.9693985,,
610,PWB,"PASCO, WA",WA,unknown,PASCO,US-WA,KPSC,medium_airport,Tri Cities Airport,410.0,,US,Pasco,KPSC,PSC,PSC,PASCO,-119.11900329589800,46.26470184326170,,
612,PNG,"PORT ANGELES, WA",WA,unknown,PORT ANGELES,US-WA,KCLM,medium_airport,William R Fairchild International Airport,291.0,,US,Port Angeles,KCLM,CLM,CLM,PORT ANGELES,-123.5,48.120201110839800,,
613,PTO,"PORT TOWNSEND, WA",WA,unknown,PORT TOWNSEND,US-WA,K0S9,small_airport,Jefferson County International Airport,108.0,,US,Port Townsend,K0S9,TWD,0S9,PORT TOWNSEND,-122.810997009,48.0537986755,,
615,SEA,"SEATTLE, WA",WA,unknown,SEATTLE,US-WA,KSEA,large_airport,Seattle Tacoma International Airport,433.0,,US,Seattle,KSEA,SEA,SEA,SEATTLE,-122.308998,47.449001,,
617,SPO,"SPOKANE, WA",WA,unknown,SPOKANE,US-WA,KGEG,large_airport,Spokane International Airport,2376.0,,US,Spokane,KGEG,GEG,GEG,SPOKANE,-117.53399658203100,47.61989974975590,,
622,TAC,"TACOMA, WA",WA,unknown,TACOMA,US-WA,KTIW,medium_airport,Tacoma Narrows Airport,294.0,,US,Tacoma,KTIW,TIW,TIW,TACOMA,-122.5780029,47.26789856,,
588,ABE,"ABERDEEN, WA",WA,unknown,ABERDEEN,US-WA,,,,,,,,,,,,,,,
592,BLA,"BLAINE, WA",WA,unknown,BLAINE,US-WA,,,,,,,,,,,,,,,
593,BWA,"BOUNDARY, WA",WA,unknown,BOUNDARY,US-WA,,,,,,,,,,,,,,,
594,CUR,"CURLEW, WA (BPS)",WA,(BPS),CURLEW,US-WA,,,,,,,,,,,,,,,
595,DVL,"DANVILLE, WA",WA,unknown,DANVILLE,US-WA,,,,,,,,,,,,,,,
597,FER,"FERRY, WA",WA,unknown,FERRY,US-WA,,,,,,,,,,,,,,,
600,FWA,"FRONTIER, WA",WA,unknown,FRONTIER,US-WA,,,,,,,,,,,,,,,
601,KLM,"KALAMA, WA",WA,unknown,KALAMA,US-WA,,,,,,,,,,,,,,,
602,LAU,"LAURIER, WA",WA,unknown,LAURIER,US-WA,,,,,,,,,,,,,,,
603,LON,"LONGVIEW, WA",WA,unknown,LONGVIEW,US-WA,,,,,,,,,,,,,,,
209,LYN,"LYNDEN, WA",WA,unknown,LYNDEN,US-WA,,,,,,,,,,,,,,,
604,MET,"METALINE FALLS, WA",WA,unknown,METALINE FALLS,US-WA,,,,,,,,,,,,,,,
605,MWH,"MOSES LAKE GRANT COUNTY ARPT, WA",WA,unknown,MOSES LAKE GRANT COUNTY ARPT,US-WA,KMWH,medium_airport,Grant County International Airport,1189.0,,US,Moses Lake,KMWH,MWH,MWH,MOSES LAKE,-119.3199997,47.20769882,,
606,NEA,"NEAH BAY, WA",WA,unknown,NEAH BAY,US-WA,,,,,,,,,,,,,,,
607,NIG,"NIGHTHAWK, WA",WA,unknown,NIGHTHAWK,US-WA,,,,,,,,,,,,,,,
609,ORO,"OROVILLE, WA",WA,unknown,OROVILLE,US-WA,,,,,,,,,,,,,,,
611,PIR,"POINT ROBERTS, WA",WA,unknown,POINT ROBERTS,US-WA,,,,,,,,,,,,,,,
620,SUM,"SUMAS, WA",WA,unknown,SUMAS,US-WA,,,,,,,,,,,,,,,
623,PSC,"TRI-CITIES - PASCO, WA",WA,unknown,TRI-CITIES - PASCO,US-WA,KPSC,medium_airport,Tri Cities Airport,410.0,,US,Pasco,KPSC,PSC,PSC,PASCO,-119.11900329589800,46.26470184326170,,
624,VAN,"VANCOUVER, WA",WA,unknown,VANCOUVER,US-WA,,,,,,,,,,,,,,,
627,GRB,"GREEN BAY, WI",WI,unknown,GREEN BAY,US-WI,KGRB,large_airport,Austin Straubel International Airport,695.0,,US,Green Bay,KGRB,GRB,GRB,GREEN BAY,-88.12960052490230,44.48509979248050,,
629,MIL,"MILWAUKEE, WI",WI,unknown,MILWAUKEE,US-WI,KMKE,large_airport,General Mitchell International Airport,723.0,,US,Milwaukee,KMKE,MKE,MKE,MILWAUKEE,-87.89659881591800,42.947200775146500,,
625,AGM,"ALGOMA, WI",WI,unknown,ALGOMA,US-WI,,,,,,,,,,,,,,,
626,BAY,"BAYFIELD, WI",WI,unknown,BAYFIELD,US-WI,,,,,,,,,,,,,,,
628,MNW,"MANITOWOC, WI",WI,unknown,MANITOWOC,US-WI,,,,,,,,,,,,,,,
631,MSN,"TRUAX FIELD - DANE COUNTY, WI",WI,unknown,TRUAX FIELD - DANE COUNTY,US-WI,KMSN,large_airport,Dane County Regional Truax Field,887.0,,US,Madison,KMSN,MSN,MSN,MADISON,-89.3375015258789,43.13990020751950,,
632,CHS,"CHARLESTON, WV",WV,unknown,CHARLESTON,US-WV,KCRW,large_airport,Yeager Airport,981.0,,US,Charleston,KCRW,CRW,CRW,CHARLESTON,-81.59320068359380,38.37310028076170,,
633,CLK,"CLARKSBURG, WV",WV,unknown,CLARKSBURG,US-WV,KCKB,medium_airport,North Central West Virginia Airport,1217.0,,US,Clarksburg,KCKB,CKB,CKB,CLARKSBURG,-80.2281036377,39.2966003418,,
634,BLF,"MERCER COUNTY, WV",WV,unknown,MERCER COUNTY,US-WV,KBLF,medium_airport,Mercer County Airport,2857.0,,US,Bluefield,KBLF,BLF,BLF,BLUEFIELD,-81.20770263671880,37.295799255371100,,
635,CSP,"CASPER, WY",WY,unknown,CASPER,US-WY,KCPR,medium_airport,Casper-Natrona County International Airport,5350.0,,US,Casper,KCPR,CPR,CPR,CASPER,-106.463997,42.908001,,
705,LND,"LANDER, WY",WY,unknown,LANDER,US-WY,KLND,medium_airport,Hunt Field,5586.0,,US,Lander,KLND,LND,LND,LANDER,-108.730003357,42.8152008057,,
650,AMS,"AMSTERDAM-SCHIPHOL, NETHERLANDS",unknown,unknown,"AMSTERDAM-SCHIPHOL, NETHERLANDS",US-unknown,EHAM,large_airport,Amsterdam Airport Schiphol,-11.0,EU,NL,Amsterdam,EHAM,AMS,,AMSTERDAM,4.76389,52.308601,,
651,ARB,"ARUBA, NETH ANTILLES",unknown,unknown,"ARUBA, NETH ANTILLES",US-unknown,TNCA,medium_airport,Queen Beatrix International Airport,60.0,,AW,Oranjestad,TNCA,AUA,,ORANJESTAD,-70.015198,12.5014,,
91,ASE,"ASPEN, CO #ARPT",unknown,unknown,"ASPEN, CO #ARPT",US-unknown,KASE,medium_airport,Aspen-Pitkin Co/Sardy Field,7820.0,,US,Aspen,KASE,ASE,ASE,ASPEN,-106.8690033,39.22320175,,
698,MAA,Abu Dhabi,unknown,unknown,Abu Dhabi,US-unknown,OMAA,large_airport,Abu Dhabi International Airport,88.0,AS,AE,Abu Dhabi,OMAA,AUH,,ABU DHABI,54.651100158691400,24.433000564575200,,
652,BAN,"BANKOK, THAILAND",unknown,unknown,"BANKOK, THAILAND",US-unknown,VTBD,large_airport,Don Mueang International Airport,9.0,AS,TH,Bangkok,VTBD,DMK,,BANGKOK,100.607002258,13.9125995636,,
653,BEI,"BEICA #ARPT, ETHIOPIA",unknown,unknown,"BEICA #ARPT, ETHIOPIA",US-unknown,HABE,small_airport,Beica Airport,5410.0,AF,ET,Beica,HABE,BEI,,BEICA,34.52190017700200,9.38638973236084,,
654,PEK,"BEIJING CAPITAL INTL, PRC",unknown,unknown,"BEIJING CAPITAL INTL, PRC",US-unknown,ZBAA,large_airport,Beijing Capital International Airport,116.0,AS,CN,Beijing,ZBAA,PEK,,BEIJING,116.58499908447300,40.080101013183600,,
591,BLI,"BELLINGHAM, WASHINGTON #INTL",unknown,unknown,"BELLINGHAM, WASHINGTON #INTL",US-unknown,KBLI,medium_airport,Bellingham International Airport,170.0,,US,Bellingham,KBLI,BLI,BLI,BELLINGHAM,-122.53800201416000,48.79280090332030,,
656,BOG,"BOGOTA, EL DORADO #ARPT, COLOMBIA",unknown,unknown,"BOGOTA, EL DORADO #ARPT, COLOMBIA",US-unknown,SKBO,large_airport,El Dorado International Airport,8361.0,SA,CO,Bogota,SKBO,BOG,BOG,BOGOTA,-74.1469,4.70159,,
657,EZE,"BUENOS AIRES, MINISTRO PIST, ARGENTINA",unknown,unknown,"BUENOS AIRES, MINISTRO PIST, ARGENTINA",US-unknown,SAEZ,large_airport,Ministro Pistarini International Airport,67.0,SA,AR,Buenos Aires,SAEZ,EZE,EZE,BUENOS AIRES,-58.5358,-34.8222,,
639,CLG,"CALGARY, CANADA",unknown,unknown,"CALGARY, CANADA",US-unknown,CYYC,large_airport,Calgary International Airport,3557.0,,CA,Calgary,CYYC,YYC,,CALGARY,-114.019996643,51.113899231,,
658,CUN,"CANCUN, MEXICO",unknown,unknown,"CANCUN, MEXICO",US-unknown,MMUN,large_airport,CancÃƒÂºn International Airport,22.0,,MX,CancÃƒÂºn,MMUN,CUN,,CANCÃƑÂºN,-86.8770980835,21.036500930800000,,
659,CRQ,"CARAVELAS, BA #ARPT, BRAZIL",unknown,unknown,"CARAVELAS, BA #ARPT, BRAZIL",US-unknown,SBCV,medium_airport,Caravelas Airport,36.0,SA,BR,Caravelas,SBCV,CRQ,,CARAVELAS,-39.253101348877,-17.652299880981,,
660,MVD,"CARRASCO, URUGUAY",unknown,unknown,"CARRASCO, URUGUAY",US-unknown,SUMU,large_airport,Carrasco International /General C L Berisso Airport,105.0,SA,UY,Montevideo,SUMU,MVD,,MONTEVIDEO,-56.0308,-34.838402,,
476,CAE,"COLUMBIA, SC #ARPT",unknown,unknown,"COLUMBIA, SC #ARPT",US-unknown,KCAE,large_airport,Columbia Metropolitan Airport,236.0,,US,Columbia,KCAE,CAE,CAE,COLUMBIA,-81.11949920654300,33.93880081176760,,
717,BUS,Collapsed (BUF) 06/15,unknown,unknown,Collapsed (BUF) 06/15,US-unknown,,,,,,,,,,,,,,,
713,FRG,Collapsed (FOK) 06/15,unknown,unknown,Collapsed (FOK) 06/15,US-unknown,,,,,,,,,,,,,,,
715,ISP,Collapsed (FOK) 06/15,unknown,unknown,Collapsed (FOK) 06/15,US-unknown,,,,,,,,,,,,,,,
714,HRL,Collapsed (HLG) 06/15,unknown,unknown,Collapsed (HLG) 06/15,US-unknown,,,,,,,,,,,,,,,
718,IAG,Collapsed (NIA) 06/15,unknown,unknown,Collapsed (NIA) 06/15,US-unknown,,,,,,,,,,,,,,,
719,PHN,Collapsed (PHU) 06/15,unknown,unknown,Collapsed (PHU) 06/15,US-unknown,,,,,,,,,,,,,,,
716,JSJ,Collapsed (SAJ) 06/15,unknown,unknown,Collapsed (SAJ) 06/15,US-unknown,,,,,,,,,,,,,,,
722,T01,Collapsed (SEA) 06/15,unknown,unknown,Collapsed (SEA) 06/15,US-unknown,,,,,,,,,,,,,,,
720,STN,Collapsed (STR) 06/15,unknown,unknown,Collapsed (STR) 06/15,US-unknown,,,,,,,,,,,,,,,
721,VMB,Collapsed (VNB) 06/15,unknown,unknown,Collapsed (VNB) 06/15,US-unknown,,,,,,,,,,,,,,,
575,DER,"DERBY LINE, VT (I-91)",unknown,unknown,"DERBY LINE, VT (I-91)",US-unknown,,,,,,,,,,,,,,,
576,DLV,"DERBY LINE, VT (RT. 5)",unknown,unknown,"DERBY LINE, VT (RT. 5)",US-unknown,,,,,,,,,,,,,,,
661,DUB,"DUBLIN, IRELAND",unknown,unknown,"DUBLIN, IRELAND",US-unknown,EIDW,large_airport,Dublin Airport,242.0,EU,IE,Dublin,EIDW,DUB,,DUBLIN,-6.27007,53.421299,,
640,EDA,"EDMONTON, CANADA",unknown,unknown,"EDMONTON, CANADA",US-unknown,CYEG,large_airport,Edmonton International Airport,2373.0,,CA,Edmonton,CYEG,YEG,CYEG,EDMONTON,-113.580001831,53.309700012200000,,
662,FOU,"FOUGAMOU #ARPT, GABON",unknown,unknown,"FOUGAMOU #ARPT, GABON",US-unknown,FOGF,small_airport,Fougamou Airport,263.0,AF,GA,Fougamou,FOGF,FOU,,FOUGAMOU,10.616999626159700,-1.2829999923706100,,
663,FBA,"FREEPORT, BAHAMAS",unknown,unknown,"FREEPORT, BAHAMAS",US-unknown,MYGF,medium_airport,Grand Bahama International Airport,7.0,,BS,Freeport,MYGF,FPO,,FREEPORT,-78.695602417,26.5587005615,,
666,GCM,"GRAND CAYMAN, CAYMAN ISLAND",unknown,unknown,"GRAND CAYMAN, CAYMAN ISLAND",US-unknown,,,,,,,,,,,,,,,
689,GRU,"GUARULHOS INTL, SAO PAULO, BRAZIL",unknown,unknown,"GUARULHOS INTL, SAO PAULO, BRAZIL",US-unknown,SBGR,large_airport,Guarulhos - Governador AndrÃƒÂ© Franco Montoro International Airport,2459.0,SA,BR,SÃƒÂ£o Paulo,SBGR,GRU,,SAO PAULO,-46.47305679321290,-23.435556411743200,,
641,YHC,"HAKAI PASS, CANADA",unknown,unknown,"HAKAI PASS, CANADA",US-unknown,,,,,,,,,,,,,,,
668,HAM,"HAMILTON, BERMUDA",unknown,unknown,"HAMILTON, BERMUDA",US-unknown,,,,,,,,,,,,,,,
642,HAL,"Halifax, NS, Canada",unknown,unknown,"Halifax, NS, Canada",US-unknown,CYHZ,large_airport,Halifax / Stanfield International Airport,477.0,,CA,Halifax,CYHZ,YHZ,,HALIFAX,-63.5085983276,44.8807983398,,
669,ICN,"INCHON, SEOUL KOREA",unknown,unknown,"INCHON, SEOUL KOREA",US-unknown,RKSI,large_airport,Incheon International Airport,23.0,AS,KR,Seoul,RKSI,ICN,,SEOUL,126.45099639892600,37.46910095214840,,
670,IWA,"INVALID - IWAKUNI, JAPAN",unknown,unknown,"INVALID - IWAKUNI, JAPAN",US-unknown,,,,,,,,,,,,,,,
655,BDA,"KINDLEY FIELD, BERMUDA",unknown,unknown,"KINDLEY FIELD, BERMUDA",US-unknown,,,,,,,,,,,,,,,
671,CND,"KOGALNICEANU, ROMANIA",unknown,unknown,"KOGALNICEANU, ROMANIA",US-unknown,LRCK,medium_airport,Mihail KogÃ„Âƒlniceanu International Airport,353.0,EU,RO,Constanta,LRCK,CND,,CONSTANTA,28.488300323486300,44.36220169067380,,
672,LAH,"LABUHA ARPT, INDONESIA",unknown,unknown,"LABUHA ARPT, INDONESIA",US-unknown,WAPH,small_airport,"Oesman Sadik Airport, Labuha",49.0,AS,ID,Labuha-Halmahera Island,WAPH,LAH,,LABUHA-HALMAHERA ISLAND,127.50199890136700,-0.6352589726448060,,
673,DUR,"LOUIS BOTHA, SOUTH AFRICA",unknown,unknown,"LOUIS BOTHA, SOUTH AFRICA",US-unknown,FALE,large_airport,King Shaka International Airport,295.0,AF,ZA,Durban,FALE,DUR,,DURBAN,31.1197222222,-29.6144444444,,
564,HEF,"MANASSAS, VA #ARPT",unknown,unknown,"MANASSAS, VA #ARPT",US-unknown,KHEF,small_airport,Manassas Regional Airport/Harry P. Davis Field,192.0,,US,Manassas,KHEF,MNZ,HEF,MANASSAS,-77.51540375,38.72140121,,
674,MAL,"MANGOLE ARPT, INDONESIA",unknown,unknown,"MANGOLE ARPT, INDONESIA",US-unknown,WAPE,small_airport,"Mangole Airport, Falabisahaya",889.0,AS,ID,Mangole Island,WAPE,MAL,,MANGOLE ISLAND,125.83000183105500,-1.875789999961850,,
35,MAP,MARIPOSA AZ,unknown,unknown,MARIPOSA AZ,US-unknown,,,,,,,,,,,,,,,
675,MDE,"MEDELLIN, COLOMBIA",unknown,unknown,"MEDELLIN, COLOMBIA",US-unknown,,,,,,,,,,,,,,,
695,ZZZ,MEXICO Land (Banco de Mexico),unknown,unknown,MEXICO Land (Banco de Mexico),US-unknown,,,,,,,,,,,,,,,
677,LHR,"MIDDLESEX, ENGLAND",unknown,unknown,"MIDDLESEX, ENGLAND",US-unknown,EGLL,large_airport,London Heathrow Airport,83.0,EU,GB,London,EGLL,LHR,,LONDON,-0.461941,51.4706,,
643,MON,"MONTREAL, CANADA",unknown,unknown,"MONTREAL, CANADA",US-unknown,CYMX,medium_airport,Montreal International (Mirabel) Airport,270.0,,CA,MontrÃƒÂ©al,CYMX,YMX,,MONTRÃƑÂ©AL,-74.038696,45.679501,,
678,NBO,"NAIROBI, KENYA",unknown,unknown,"NAIROBI, KENYA",US-unknown,HKJK,large_airport,Jomo Kenyatta International Airport,5330.0,AF,KE,Nairobi,HKJK,NBO,,NAIROBI,36.9277992249,-1.31923997402,,
136,APF,"NAPLES, FL #ARPT",unknown,unknown,"NAPLES, FL #ARPT",US-unknown,KAPF,medium_airport,Naples Municipal Airport,8.0,,US,Naples,KAPF,APF,APF,NAPLES,-81.7752990723,26.1525993347,,
679,NAS,"NASSAU, BAHAMAS",unknown,unknown,"NASSAU, BAHAMAS",US-unknown,MYNN,large_airport,Lynden Pindling International Airport,16.0,,BS,Nassau,MYNN,NAS,,NASSAU,-77.46620178220000,25.0389995575,,
680,NCA,"NORTH CAICOS, TURK & CAIMAN",unknown,unknown,"NORTH CAICOS, TURK & CAIMAN",US-unknown,MBNC,medium_airport,North Caicos Airport,10.0,,TC,,MBNC,NCA,,,-71.939598,21.9175,,
636,XXX,NOT REPORTED/UNKNOWN,unknown,unknown,NOT REPORTED/UNKNOWN,US-unknown,,,,,,,,,,,,,,,
772,.GA,No PORT Code (.GA),unknown,unknown,No PORT Code (.GA),US-unknown,,,,,,,,,,,,,,,
739,5T6,No PORT Code (5T6),unknown,unknown,No PORT Code (5T6),US-unknown,,,,,,,,,,,,,,,
740,60,No PORT Code (60),unknown,unknown,No PORT Code (60),US-unknown,,,,,,,,,,,,,,,
747,74S,No PORT Code (74S),unknown,unknown,No PORT Code (74S),US-unknown,,,,,,,,,,,,,,,
780,A2A,No PORT Code (A2A),unknown,unknown,No PORT Code (A2A),US-unknown,,,,,,,,,,,,,,,
777,ADU,No PORT Code (ADU),unknown,unknown,No PORT Code (ADU),US-unknown,,,,,,,,,,,,,,,
757,AG,No PORT Code (AG),unknown,unknown,No PORT Code (AG),US-unknown,,,,,,,,,,,,,,,
778,AKT,No PORT Code (AKT),unknown,unknown,No PORT Code (AKT),US-unknown,,,,,,,,,,,,,,,
767,AMT,No PORT Code (AMT),unknown,unknown,No PORT Code (AMT),US-unknown,,,,,,,,,,,,,,,
753,ASI,No PORT Code (ASI),unknown,unknown,No PORT Code (ASI),US-unknown,,,,,,,,,,,,,,,
748,ATW,No PORT Code (ATW),unknown,unknown,No PORT Code (ATW),US-unknown,,,,,,,,,,,,,,,
744,AUH,No PORT Code (AUH),unknown,unknown,No PORT Code (AUH),US-unknown,,,,,,,,,,,,,,,
758,BCM,No PORT Code (BCM),unknown,unknown,No PORT Code (BCM),US-unknown,,,,,,,,,,,,,,,
754,BKF,No PORT Code (BKF),unknown,unknown,No PORT Code (BKF),US-unknown,,,,,,,,,,,,,,,
696,CHN,No PORT Code (CHN),unknown,unknown,No PORT Code (CHN),US-unknown,,,,,,,,,,,,,,,
773,CLX,No PORT Code (CLX),unknown,unknown,No PORT Code (CLX),US-unknown,,,,,,,,,,,,,,,
774,CP,No PORT Code (CP),unknown,unknown,No PORT Code (CP),US-unknown,,,,,,,,,,,,,,,
749,CPX,No PORT Code (CPX),unknown,unknown,No PORT Code (CPX),US-unknown,,,,,,,,,,,,,,,
761,CXO,No PORT Code (CXO),unknown,unknown,No PORT Code (CXO),US-unknown,,,,,,,,,,,,,,,
755,DAY,No PORT Code (DAY),unknown,unknown,No PORT Code (DAY),US-unknown,,,,,,,,,,,,,,,
759,DEC,No PORT Code (DEC),unknown,unknown,No PORT Code (DEC),US-unknown,,,,,,,,,,,,,,,
724,DRV,No PORT Code (DRV),unknown,unknown,No PORT Code (DRV),US-unknown,,,,,,,,,,,,,,,
768,EGE,No PORT Code (EGE),unknown,unknown,No PORT Code (EGE),US-unknown,,,,,,,,,,,,,,,
775,FSC,No PORT Code (FSC),unknown,unknown,No PORT Code (FSC),US-unknown,,,,,,,,,,,,,,,
725,FTB,No PORT Code (FTB),unknown,unknown,No PORT Code (FTB),US-unknown,,,,,,,,,,,,,,,
726,GAC,No PORT Code (GAC),unknown,unknown,No PORT Code (GAC),US-unknown,,,,,,,,,,,,,,,
727,GMT,No PORT Code (GMT),unknown,unknown,No PORT Code (GMT),US-unknown,,,,,,,,,,,,,,,
769,GPI,No PORT Code (GPI),unknown,unknown,No PORT Code (GPI),US-unknown,,,,,,,,,,,,,,,
762,JBQ,No PORT Code (JBQ),unknown,unknown,No PORT Code (JBQ),US-unknown,,,,,,,,,,,,,,,
728,JFA,No PORT Code (JFA),unknown,unknown,No PORT Code (JFA),US-unknown,,,,,,,,,,,,,,,
763,JIG,No PORT Code (JIG),unknown,unknown,No PORT Code (JIG),US-unknown,,,,,,,,,,,,,,,
729,JMZ,No PORT Code (JMZ),unknown,unknown,No PORT Code (JMZ),US-unknown,,,,,,,,,,,,,,,
779,LIT,No PORT Code (LIT),unknown,unknown,No PORT Code (LIT),US-unknown,,,,,,,,,,,,,,,
750,MTH,No PORT Code (MTH),unknown,unknown,No PORT Code (MTH),US-unknown,,,,,,,,,,,,,,,
730,NC8,No PORT Code (NC8),unknown,unknown,No PORT Code (NC8),US-unknown,,,,,,,,,,,,,,,
770,NGL,No PORT Code (NGL),unknown,unknown,No PORT Code (NGL),US-unknown,,,,,,,,,,,,,,,
776,NK,No PORT Code (NK),unknown,unknown,No PORT Code (NK),US-unknown,,,,,,,,,,,,,,,
731,NYL,No PORT Code (NYL),unknown,unknown,No PORT Code (NYL),US-unknown,,,,,,,,,,,,,,,
732,OAI,No PORT Code (OAI),unknown,unknown,No PORT Code (OAI),US-unknown,,,,,,,,,,,,,,,
764,OGS,No PORT Code (OGS),unknown,unknown,No PORT Code (OGS),US-unknown,,,,,,,,,,,,,,,
771,OLM,No PORT Code (OLM),unknown,unknown,No PORT Code (OLM),US-unknown,,,,,,,,,,,,,,,
781,OSN,No PORT Code (OSN),unknown,unknown,No PORT Code (OSN),US-unknown,,,,,,,,,,,,,,,
766,OTS,No PORT Code (OTS),unknown,unknown,No PORT Code (OTS),US-unknown,,,,,,,,,,,,,,,
733,PCW,No PORT Code (PCW),unknown,unknown,No PORT Code (PCW),US-unknown,,,,,,,,,,,,,,,
751,PFN,No PORT Code (PFN),unknown,unknown,No PORT Code (PFN),US-unknown,,,,,,,,,,,,,,,
723,PHF,No PORT Code (PHF),unknown,unknown,No PORT Code (PHF),US-unknown,,,,,,,,,,,,,,,
760,PLB,No PORT Code (PLB),unknown,unknown,No PORT Code (PLB),US-unknown,,,,,,,,,,,,,,,
745,RYY,No PORT Code (RYY),unknown,unknown,No PORT Code (RYY),US-unknown,,,,,,,,,,,,,,,
752,SCH,No PORT Code (SCH),unknown,unknown,No PORT Code (SCH),US-unknown,,,,,,,,,,,,,,,
741,SP0,No PORT Code (SP0),unknown,unknown,No PORT Code (SP0),US-unknown,,,,,,,,,,,,,,,
746,SUS,No PORT Code (SUS),unknown,unknown,No PORT Code (SUS),US-unknown,,,,,,,,,,,,,,,
765,TIW,No PORT Code (TIW),unknown,unknown,No PORT Code (TIW),US-unknown,,,,,,,,,,,,,,,
742,W55,No PORT Code (W55),unknown,unknown,No PORT Code (W55),US-unknown,,,,,,,,,,,,,,,
734,WA5,No PORT Code (WAS),unknown,unknown,No PORT Code (WAS),US-unknown,,,,,,,,,,,,,,,
735,WTR,No PORT Code (WTR),unknown,unknown,No PORT Code (WTR),US-unknown,,,,,,,,,,,,,,,
743,X44,No PORT Code (X44),unknown,unknown,No PORT Code (X44),US-unknown,,,,,,,,,,,,,,,
736,X96,No PORT Code (X96),unknown,unknown,No PORT Code (X96),US-unknown,,,,,,,,,,,,,,,
737,XNA,No PORT Code (XNA),unknown,unknown,No PORT Code (XNA),US-unknown,,,,,,,,,,,,,,,
756,Y62,No PORT Code (Y62),unknown,unknown,No PORT Code (Y62),US-unknown,,,,,,,,,,,,,,,
738,YGF,No PORT Code (YGF),unknown,unknown,No PORT Code (YGF),US-unknown,,,,,,,,,,,,,,,
681,PTY,"OMAR TORRIJOS, PANAMA",unknown,unknown,"OMAR TORRIJOS, PANAMA",US-unknown,,,,,,,,,,,,,,,
644,OTT,"OTTAWA, CANADA",unknown,unknown,"OTTAWA, CANADA",US-unknown,CYOW,large_airport,Ottawa Macdonald-Cartier International Airport,374.0,,CA,Ottawa,CYOW,YOW,YOW,OTTAWA,-75.66919708251950,45.3224983215332,,
682,SPV,"PAPUA, NEW GUINEA",unknown,unknown,"PAPUA, NEW GUINEA",US-unknown,AYSQ,small_airport,Sepik Plains Airport,230.0,OC,PG,Sepik Plains,AYSQ,SPV,SPP,SEPIK PLAINS,143.6734,-3.8821,,
537,PDN,"PASO DEL NORTE,TX",unknown,unknown,"PASO DEL NORTE,TX",US-unknown,,,,,,,,,,,,,,,
683,UIO,"QUITO (MARISCAL SUCR), ECUADOR",unknown,unknown,"QUITO (MARISCAL SUCR), ECUADOR",US-unknown,SEQM,large_airport,Mariscal Sucre International Airport,7841.0,SA,EC,Quito,SEQM,UIO,UIO,QUITO,-78.3575,-0.129166666667,,
684,RIT,"ROME, ITALY",unknown,unknown,"ROME, ITALY",US-unknown,LIRF,large_airport,Leonardo da VinciÃ¢Â€Â“Fiumicino Airport,13.0,EU,IT,Rome,LIRF,FCO,RM11,ROME,12.2388889,41.8002778,,
485,SAI,"SAIPAN, SPN",unknown,unknown,"SAIPAN, SPN",US-unknown,PGSN,medium_airport,Saipan International Airport,215.0,OC,MP,Saipan Island,PGSN,SPN,GSN,SAIPAN ISLAND,145.729004,15.119,,
685,SNO,"SAKON NAKHON #ARPT, THAILAND",unknown,unknown,"SAKON NAKHON #ARPT, THAILAND",US-unknown,VTUI,medium_airport,Sakon Nakhon Airport,529.0,AS,TH,,VTUI,SNO,,,104.11900329589800,17.195100784301800,,
686,SLP,"SAN LUIS POTOSI #ARPT, MEXICO",unknown,unknown,"SAN LUIS POTOSI #ARPT, MEXICO",US-unknown,MMSP,medium_airport,Ponciano Arriaga International Airport,6035.0,,MX,San Luis PotosÃƒÂ­,MMSP,SLP,,SAN LUIS POTOSÃƑÂ­,-100.930999756,22.254299163800000,,
687,SAN,"SAN SALVADOR, EL SALVADOR",unknown,unknown,"SAN SALVADOR, EL SALVADOR",US-unknown,MSLP,large_airport,MonseÃƒÂ±or ÃƒÂ“scar Arnulfo Romero International Airport,101.0,,SV,San Salvador (San Luis Talpa),MSLP,SAL,,SAN SALVADOR (SAN LUIS TALPA),-89.055702,13.4409,,
688,SRO,"SANTANA RAMOS #ARPT, COLOMBIA",unknown,unknown,"SANTANA RAMOS #ARPT, COLOMBIA",US-unknown,SK-245,small_airport,Santana Ramos Airport,6017.0,SA,CO,Santana Ramos,,SRO,SRO,SANTANA RAMOS,-75.25,2.216667,,
645,YXE,"SASKATOON, CANADA",unknown,unknown,"SASKATOON, CANADA",US-unknown,CYXE,medium_airport,Saskatoon John G. Diefenbaker International Airport,1653.0,,CA,Saskatoon,CYXE,YXE,,SASKATOON,-106.69999694824200,52.170799255371100,,
690,SHA,"SHANNON, IRELAND",unknown,unknown,"SHANNON, IRELAND",US-unknown,EINN,large_airport,Shannon Airport,46.0,EU,IE,Shannon,EINN,SNN,,SHANNON,-8.92482,52.702,,
691,HIL,"SHILLAVO, ETHIOPIA",unknown,unknown,"SHILLAVO, ETHIOPIA",US-unknown,,,,,,,,,,,,,,,
586,SWB,"SWANTON, VT (BP - SECTOR HQ)",unknown,unknown,"SWANTON, VT (BP - SECTOR HQ)",US-unknown,,,,,,,,,,,,,,,
692,TOK,"TOROKINA #ARPT, PAPUA, NEW GUINEA",unknown,unknown,"TOROKINA #ARPT, PAPUA, NEW GUINEA",US-unknown,TOK,small_airport,Torokina Airport,130.0,OC,PG,Torokina,,TOK,TKN,TOROKINA,155.063,-6.2015,,
646,TOR,"TORONTO, CANADA",unknown,unknown,"TORONTO, CANADA",US-unknown,CYYZ,large_airport,Lester B. Pearson International Airport,569.0,,CA,Toronto,CYYZ,YYZ,YYZ,TORONTO,-79.63059997560000,43.6772003174,,
637,888,UNIDENTIFED AIR / SEAPORT,unknown,unknown,UNIDENTIFED AIR / SEAPORT,US-unknown,,,,,,,,,,,,,,,
638,UNK,UNKNOWN POE,unknown,unknown,UNKNOWN POE,US-unknown,,,,,,,,,,,,,,,
647,VCV,"VANCOUVER, CANADA",unknown,unknown,"VANCOUVER, CANADA",US-unknown,CYVR,large_airport,Vancouver International Airport,14.0,,CA,Vancouver,CYVR,YVR,,VANCOUVER,-123.183998108,49.193901062,,
693,VER,"VERACRUZ, MEXICO",unknown,unknown,"VERACRUZ, MEXICO",US-unknown,MMVR,medium_airport,General Heriberto Jara International Airport,90.0,,MX,Veracruz,MMVR,VER,,VERACRUZ,-96.1873016357,19.1459007263,,
648,VIC,"VICTORIA, CANADA",unknown,unknown,"VICTORIA, CANADA",US-unknown,CYYJ,large_airport,Victoria International Airport,63.0,,CA,Victoria,CYYJ,YYJ,,VICTORIA,-123.426002502,48.646900177,,
106,WAS,WASHINGTON DC,unknown,unknown,WASHINGTON DC,US-unknown,,,,,,,,,,,,,,,
694,LGW,"WEST SUSSEX, ENGLAND",unknown,unknown,"WEST SUSSEX, ENGLAND",US-unknown,EGKK,large_airport,London Gatwick Airport,202.0,EU,GB,London,EGKK,LGW,,LONDON,-0.190278,51.148102,,
649,WIN,"WINNIPEG, CANADA",unknown,unknown,"WINNIPEG, CANADA",US-unknown,CYWG,large_airport,Winnipeg / James Armstrong Richardson International Airport,783.0,,CA,Winnipeg,CYWG,YWG,YWG,WINNIPEG,-97.2398986816,49.909999847400000,,